{
"type": "FeatureCollection",
"name": "ahmedabad_25_wards",
"crs": { "type": "name", "properties": { "name": "urn:ogc:def:crs:OGC:1.3:CRS84" } },
"features": [
{ "type": "Feature", "properties": { "ward_id": "Ahmedabad_WARD_0_0", "ward_name": "North-East Ward 1", "city": "Ahmedabad", "lst_excess": 3.4964491656491656, "sevi": 29.252902116402119, "built_fraction": 0.55773339031339031, "green_ratio": 0.23436626373626374, "ghsl_height": 21.777190272690273, "albedo": 0.23356366300366299, "qf": 8.342444424094424 }, "geometry": { "type": "Polygon", "coordinates": [ [ [ 72.623650572134991, 23.077424008282787 ], [ 72.623610899335034, 23.079680396156302 ], [ 72.623571221544282, 23.081936783321048 ], [ 72.623531538762364, 23.084193169776963 ], [ 72.623491850988913, 23.086449555523995 ], [ 72.623452158223543, 23.088705940562086 ], [ 72.623412460465914, 23.090962324891176 ], [ 72.625851455946389, 23.090999033952915 ], [ 72.628290456414405, 23.091035705398408 ], [ 72.630729461864846, 23.091072339227342 ], [ 72.633168472292638, 23.091108935439411 ], [ 72.633128932152388, 23.093365335007725 ], [ 72.635567988205807, 23.093401897579454 ], [ 72.638007049226729, 23.093438422529616 ], [ 72.640446115210011, 23.093474909857886 ], [ 72.64040669207391, 23.09573132063624 ], [ 72.642845803674092, 23.095767774307017 ], [ 72.642806416245122, 23.098024188341927 ], [ 72.645245573462958, 23.098060608346838 ], [ 72.645206221751309, 23.100317025634421 ], [ 72.645166865091511, 23.102573442213878 ], [ 72.647606108603455, 23.102609832501479 ], [ 72.647645424587552, 23.100353411965116 ], [ 72.650084632366827, 23.100389760660409 ], [ 72.652523845084033, 23.100426071720005 ], [ 72.652563074782776, 23.098169642574362 ], [ 72.652602299549045, 23.095913212721033 ], [ 72.655041435860795, 23.095949478255719 ], [ 72.657480577099506, 23.095985706162264 ], [ 72.659919723260089, 23.096021896440369 ], [ 72.659958821108731, 23.093765454058914 ], [ 72.659997914040986, 23.09150901097027 ], [ 72.66003700205718, 23.089252567174498 ], [ 72.660076085157726, 23.086996122671653 ], [ 72.660115163342965, 23.084739677461787 ], [ 72.66015423661328, 23.082483231544959 ], [ 72.657715334349362, 23.082447064881375 ], [ 72.657754443336657, 23.080190622192941 ], [ 72.657793547404651, 23.077934178797541 ], [ 72.657832646553686, 23.075677734695216 ], [ 72.657871740784145, 23.073421289886035 ], [ 72.657910830096398, 23.071164844370063 ], [ 72.657949914490771, 23.06890839814734 ], [ 72.657988993967678, 23.066651951217924 ], [ 72.658028068527457, 23.064395503581881 ], [ 72.658067138170466, 23.062139055239264 ], [ 72.655628606323305, 23.062102886421748 ], [ 72.653190079397604, 23.062066680037432 ], [ 72.650751557398522, 23.062030436086623 ], [ 72.648313040331132, 23.061994154569632 ], [ 72.645874528200551, 23.061957835486762 ], [ 72.64583525560937, 23.064214264096609 ], [ 72.643396707832153, 23.064177903489348 ], [ 72.640958165002331, 23.06414150531274 ], [ 72.638519627124978, 23.064105069567098 ], [ 72.63608109420521, 23.064068596252717 ], [ 72.633642566248128, 23.064032085369924 ], [ 72.633603085750138, 23.066288493436936 ], [ 72.631164522169058, 23.066251941006648 ], [ 72.628725963561237, 23.066215351004459 ], [ 72.626287409931777, 23.066178723430703 ], [ 72.626247802676048, 23.068435118838995 ], [ 72.626208190436458, 23.070691513538918 ], [ 72.626168573212667, 23.07294790753043 ], [ 72.62612895100429, 23.075204300813489 ], [ 72.626089323810973, 23.077460693388016 ], [ 72.623650572134991, 23.077424008282787 ] ] ] } },
{ "type": "Feature", "properties": { "ward_id": "Ahmedabad_WARD_1_0", "ward_name": "South-West Ward 2", "city": "Ahmedabad", "lst_excess": 6.9415960190813912, "sevi": 44.749938154339745, "built_fraction": 0.68600471124620055, "green_ratio": 0.19899870187436675, "ghsl_height": 25.15595765788585, "albedo": 0.21691412951705505, "qf": 11.737179500168862 }, "geometry": { "type": "Polygon", "coordinates": [ [ [ 72.47355301081825, 23.016416435520988 ], [ 72.473510958084972, 23.018672586502035 ], [ 72.475948377419755, 23.018711495569917 ], [ 72.478385802046432, 23.018750367168124 ], [ 72.478343824956966, 23.021006525914462 ], [ 72.475906359859692, 23.020967650077885 ], [ 72.475864337007337, 23.023223803870444 ], [ 72.475822308862305, 23.025479956947525 ], [ 72.475780275424185, 23.027736109309057 ], [ 72.475738236692621, 23.029992260954995 ], [ 72.475696192667201, 23.032248411885263 ], [ 72.475654143347526, 23.034504562099826 ], [ 72.4756120887332, 23.03676071159861 ], [ 72.473174345494172, 23.036721768587388 ], [ 72.47313224507387, 23.038977913126796 ], [ 72.473090139353033, 23.041234056950181 ], [ 72.475527963619072, 23.041273008448613 ], [ 72.477965793180928, 23.041311922436538 ], [ 72.477923763201872, 23.043568074027363 ], [ 72.480361638576369, 23.043606954740092 ], [ 72.482799519236906, 23.043645797937565 ], [ 72.485237405178353, 23.043684603619457 ], [ 72.48519549149043, 23.045940767189482 ], [ 72.48763342323592, 23.045979539578983 ], [ 72.490071360252514, 23.046018274448166 ], [ 72.490029522355371, 23.048274445745896 ], [ 72.492467505172073, 23.048313147309912 ], [ 72.492509302535154, 23.046056971796688 ], [ 72.49494725007871, 23.04609563162423 ], [ 72.49498900165149, 23.043839451184628 ], [ 72.497426913921117, 23.043878069283675 ], [ 72.497468619713786, 23.041621883922108 ], [ 72.499906496708704, 23.041660460300637 ], [ 72.499948156731463, 23.039404270021514 ], [ 72.502385998450904, 23.039442804687511 ], [ 72.50242761271393, 23.037186609495258 ], [ 72.504865419157099, 23.037225102456688 ], [ 72.504906987670608, 23.034968902355704 ], [ 72.507344758836737, 23.035007353620557 ], [ 72.507386281610906, 23.032751148615258 ], [ 72.509824017499213, 23.032789558191514 ], [ 72.509865494544229, 23.030533348286323 ], [ 72.512303195153947, 23.030571716181939 ], [ 72.512344626480001, 23.028315501381268 ], [ 72.5099069663667, 23.028277137667377 ], [ 72.509948432967022, 23.026020926334731 ], [ 72.50998989434558, 23.023764714288447 ], [ 72.507552320431216, 23.023726321455172 ], [ 72.50759381706915, 23.021470112880721 ], [ 72.507635308480999, 23.019213903592608 ], [ 72.505197820748748, 23.019175481656081 ], [ 72.50523934740508, 23.016919275843591 ], [ 72.502801905373403, 23.016880820626756 ], [ 72.502843467264029, 23.014624618293762 ], [ 72.502885023919561, 23.012368415247021 ], [ 72.500447668046917, 23.01232993095536 ], [ 72.500489259921849, 23.010073731391898 ], [ 72.500530846557368, 23.007817531114672 ], [ 72.498093576826918, 23.0077790177643 ], [ 72.495656312340614, 23.007740466961717 ], [ 72.493219053103516, 23.007701878707252 ], [ 72.493177345123229, 23.009958066369439 ], [ 72.490740050692949, 23.009919436450232 ], [ 72.488302761522462, 23.009880769075718 ], [ 72.485865477616855, 23.009842064246222 ], [ 72.485823643025299, 23.012098238542048 ], [ 72.483386323938248, 23.012059492032328 ], [ 72.480949010126636, 23.012020708064199 ], [ 72.478511701595579, 23.011981886637987 ], [ 72.478469740365341, 23.014238047529826 ], [ 72.476032396664593, 23.014199184407925 ], [ 72.473595058254944, 23.014160283824509 ], [ 72.471157725141495, 23.014121345779923 ], [ 72.471115637245177, 23.016377493230152 ], [ 72.47355301081825, 23.016416435520988 ] ] ] } },
{ "type": "Feature", "properties": { "ward_id": "Ahmedabad_WARD_2_0", "ward_name": "South-West Ward 3", "city": "Ahmedabad", "lst_excess": 4.6923222143642933, "sevi": 32.520753771805751, "built_fraction": 0.55803951555869868, "green_ratio": 0.26548444130127302, "ghsl_height": 22.045789132484678, "albedo": 0.23394187097281155, "qf": 8.9531922835140652 }, "geometry": { "type": "Polygon", "coordinates": [ [ [ 72.524491776362339, 23.030762993228457 ], [ 72.522054049716346, 23.030724812811112 ], [ 72.522012775182773, 23.032981043584773 ], [ 72.521971495451751, 23.03523727364529 ], [ 72.521930210522896, 23.037493502992611 ], [ 72.524368058694535, 23.037531695894671 ], [ 72.52432680908619, 23.039787928690572 ], [ 72.524285554284333, 23.042044160773287 ], [ 72.524244294288593, 23.044300392142766 ], [ 72.526682269225986, 23.044338560009617 ], [ 72.526641044570368, 23.04659479482396 ], [ 72.526599814725174, 23.048851028925068 ], [ 72.526558579690047, 23.0511072623129 ], [ 72.526517339464576, 23.053363494987398 ], [ 72.528955481760903, 23.053401641949893 ], [ 72.528914276899897, 23.055657878065585 ], [ 72.528873066852867, 23.057914113467966 ], [ 72.528831851619458, 23.060170348156962 ], [ 72.531270120783432, 23.060208470033306 ], [ 72.533708395129082, 23.06024655435894 ], [ 72.53614667465132, 23.060284601133546 ], [ 72.536105575944887, 23.062540847549624 ], [ 72.538543901210616, 23.062578860911529 ], [ 72.540982231643113, 23.06261683671767 ], [ 72.543420567237277, 23.062654774967715 ], [ 72.545858907987991, 23.062692675661356 ], [ 72.548297253890169, 23.062730538798263 ], [ 72.550735604938694, 23.062768364378108 ], [ 72.553173961128493, 23.062806152400576 ], [ 72.553214775822724, 23.060549877099643 ], [ 72.55325558538118, 23.058293601086596 ], [ 72.553296389804231, 23.056037324361508 ], [ 72.555734629421394, 23.056075062496497 ], [ 72.555775388150053, 23.053818780949758 ], [ 72.555816141749162, 23.051562498691219 ], [ 72.555856890219133, 23.049306215720939 ], [ 72.555897633560321, 23.047049932038984 ], [ 72.558335716098867, 23.047087616206696 ], [ 72.55837641377228, 23.044831327708064 ], [ 72.558417106322793, 23.042575038498008 ], [ 72.558457793750762, 23.040318748576571 ], [ 72.558498476056585, 23.038062457943816 ], [ 72.56093640158997, 23.038100088178759 ], [ 72.560977038254649, 23.035843792734312 ], [ 72.561017669803007, 23.0335874965788 ], [ 72.558579825303269, 23.03354987454459 ], [ 72.556141985924555, 23.033512215005157 ], [ 72.556182693374993, 23.031255926343061 ], [ 72.5537448996308, 23.031218233407071 ], [ 72.553785642458834, 23.028961948141951 ], [ 72.551347894348424, 23.028924221817757 ], [ 72.548910151373548, 23.028886457997473 ], [ 72.548950970066443, 23.026630180249462 ], [ 72.546513272729285, 23.026592383053739 ], [ 72.544075580537495, 23.026554548366651 ], [ 72.544116475073736, 23.024298278151615 ], [ 72.541678828523615, 23.024260410101842 ], [ 72.539241187128638, 23.02422250456544 ], [ 72.539282157486724, 23.02196624189925 ], [ 72.536844561737354, 23.021928303012924 ], [ 72.534406971152976, 23.021890326644698 ], [ 72.534365919824552, 23.02414658103401 ], [ 72.531928293925631, 23.024108563039629 ], [ 72.531887196937049, 23.026364812572009 ], [ 72.529449535724353, 23.026326752943497 ], [ 72.529408393065452, 23.028582997614521 ], [ 72.526970696539735, 23.028544896343902 ], [ 72.524533005200496, 23.028506757580409 ], [ 72.524491776362339, 23.030762993228457 ] ] ] } },
{ "type": "Feature", "properties": { "ward_id": "Ahmedabad_WARD_3_0", "ward_name": "South-East Ward 4", "city": "Ahmedabad", "lst_excess": 3.6050703520770009, "sevi": 29.619381965552176, "built_fraction": 0.55832297154677479, "green_ratio": 0.23462523640661939, "ghsl_height": 22.079590721040191, "albedo": 0.23341998480243162, "qf": 8.4644062183384001 }, "geometry": { "type": "Polygon", "coordinates": [ [ [ 72.597665980815009, 23.02963460978269 ], [ 72.597625967104634, 23.031890968370433 ], [ 72.59758594835516, 23.034147326249197 ], [ 72.595148027651788, 23.034110266831423 ], [ 72.595107963342926, 23.036366619962134 ], [ 72.592670007164571, 23.036329518991288 ], [ 72.592629897286102, 23.038585867369534 ], [ 72.590191905633517, 23.038548724837629 ], [ 72.58775391903643, 23.038511544788193 ], [ 72.587713723049205, 23.040767884358043 ], [ 72.587673522000998, 23.043024223218151 ], [ 72.590111589661163, 23.043061411370786 ], [ 72.59007142409078, 23.045317753572899 ], [ 72.590031253463778, 23.047574095065286 ], [ 72.589991077779757, 23.049830435847895 ], [ 72.59242927213019, 23.049867598618352 ], [ 72.592389131943662, 23.052123942739222 ], [ 72.592348986704465, 23.054380286150334 ], [ 72.594787267222756, 23.054417419470674 ], [ 72.594747157495988, 23.056673766216225 ], [ 72.597185483628039, 23.056710866029995 ], [ 72.599623814803294, 23.056747928292612 ], [ 72.602062151016639, 23.05678495300376 ], [ 72.604500492263, 23.056821940163111 ], [ 72.606938838537275, 23.056858889770371 ], [ 72.609377189834348, 23.05689580182521 ], [ 72.611815546149117, 23.056932676327325 ], [ 72.614253907476481, 23.056969513276396 ], [ 72.616692273811353, 23.057006312672115 ], [ 72.619130645148616, 23.057043074514166 ], [ 72.619170349200445, 23.054786687550667 ], [ 72.61921004825534, 23.052530299878764 ], [ 72.619249742313698, 23.050273911498536 ], [ 72.619289431375876, 23.048017522410024 ], [ 72.621727645462869, 23.048054230701624 ], [ 72.621767288980081, 23.04579783690609 ], [ 72.621806927506967, 23.043541442402525 ], [ 72.621846561043867, 23.041285047190989 ], [ 72.621886189591166, 23.039028651271536 ], [ 72.62432424650143, 23.039065306047121 ], [ 72.624363829530395, 23.036808905425609 ], [ 72.624403407575599, 23.034552504096421 ], [ 72.624442980637397, 23.032296102059618 ], [ 72.624482548716159, 23.030039699315257 ], [ 72.622044653891749, 23.030003060515682 ], [ 72.622084257496596, 23.027746661057499 ], [ 72.619646408168293, 23.027709988750431 ], [ 72.617208563832463, 23.027673278942512 ], [ 72.617248243456061, 23.025416886776117 ], [ 72.614810444620318, 23.025380143473466 ], [ 72.614850159744122, 23.023123754604978 ], [ 72.612412406407742, 23.023086977815957 ], [ 72.612452157021579, 23.020830592249247 ], [ 72.610014449183794, 23.020793781982206 ], [ 72.61005423527746, 23.018537399721183 ], [ 72.607616572937545, 23.018500555984463 ], [ 72.60765639450085, 23.016244177032998 ], [ 72.605218777658052, 23.016207299834964 ], [ 72.602781165836461, 23.016170385158375 ], [ 72.60034355904115, 23.01613343300356 ], [ 72.600303616037039, 23.018389799877877 ], [ 72.597865973793589, 23.01835280621124 ], [ 72.597825985273076, 23.020609168343036 ], [ 72.595388307582226, 23.020572133156612 ], [ 72.595348273535137, 23.022828490541482 ], [ 72.595308234445355, 23.02508484721746 ], [ 72.595268190312495, 23.027341203184509 ], [ 72.595228141136204, 23.02959755844255 ], [ 72.597665980815009, 23.02963460978269 ] ] ] } },
{ "type": "Feature", "properties": { "ward_id": "Ahmedabad_WARD_4_0", "ward_name": "North-West Ward 5", "city": "Ahmedabad", "lst_excess": 5.6004725260119992, "sevi": 36.546143198906357, "built_fraction": 0.59568086504139139, "green_ratio": 0.2649100193665983, "ghsl_height": 22.896158388395229, "albedo": 0.22564856269461531, "qf": 9.8727355699855703 }, "geometry": { "type": "Polygon", "coordinates": [ [ [ 72.54003740232271, 23.114510497713262 ], [ 72.539996260774984, 23.116766735278595 ], [ 72.539955114056397, 23.119022972129699 ], [ 72.539913962166565, 23.121279208266515 ], [ 72.539872805105077, 23.123535443688986 ], [ 72.539831642871562, 23.125791678397057 ], [ 72.539790475465622, 23.128047912390659 ], [ 72.539749302886918, 23.130304145669754 ], [ 72.539708125135007, 23.132560378234267 ], [ 72.542147721017443, 23.132598444595935 ], [ 72.544587322068338, 23.132636473274449 ], [ 72.547026928282563, 23.132674464269474 ], [ 72.549466539655029, 23.132712417580681 ], [ 72.54942551967666, 23.134968665945106 ], [ 72.551865176939984, 23.135006585690597 ], [ 72.554304839351673, 23.135044467747544 ], [ 72.554263895705887, 23.137300723630812 ], [ 72.556703604004483, 23.13733857210925 ], [ 72.556662695963766, 23.139594831389068 ], [ 72.559102450150007, 23.139632646280628 ], [ 72.561542209470048, 23.139670423474499 ], [ 72.5639819739188, 23.139708162970358 ], [ 72.564022759711037, 23.137451891383598 ], [ 72.566462488533105, 23.137489589086989 ], [ 72.566503228456995, 23.135233312692826 ], [ 72.566543963263186, 23.132977035585441 ], [ 72.568983615717414, 23.133014687414587 ], [ 72.569024304670975, 23.130758405504384 ], [ 72.569064988512707, 23.128502122881208 ], [ 72.569105667242994, 23.126245839545117 ], [ 72.569146340862204, 23.123989555496149 ], [ 72.569187009370722, 23.121733270734389 ], [ 72.571626463309897, 23.121770864450419 ], [ 72.571585835516615, 23.124027153297199 ], [ 72.574025335276602, 23.124064713427586 ], [ 72.574065922354279, 23.121808420499878 ], [ 72.576505386498752, 23.121845938882451 ], [ 72.576545927765466, 23.11958964116555 ], [ 72.576586463937588, 23.117333342736362 ], [ 72.576626995015502, 23.115077043594937 ], [ 72.57666752099955, 23.112820743741338 ], [ 72.576708041890143, 23.110564443175623 ], [ 72.576748557687665, 23.108308141897847 ], [ 72.57430933773179, 23.108270647973526 ], [ 72.574349889116817, 23.106014350059663 ], [ 72.571910714938596, 23.105976822573002 ], [ 72.56947154586291, 23.105939257448401 ], [ 72.569512173499589, 23.103682966986291 ], [ 72.567073050205522, 23.103645368312133 ], [ 72.564633932023838, 23.103607732004765 ], [ 72.564674635890569, 23.101351449010298 ], [ 72.562235563494482, 23.101313779166144 ], [ 72.559796496220599, 23.101276071693508 ], [ 72.559837276295838, 23.099019796182571 ], [ 72.557398254811503, 23.098982055185925 ], [ 72.554959238459233, 23.098944276565522 ], [ 72.555000094721393, 23.096688008554004 ], [ 72.552561124162636, 23.09665019642237 ], [ 72.550122158745751, 23.096612346671723 ], [ 72.547683198475866, 23.096574459302371 ], [ 72.547642220245777, 23.098830714965064 ], [ 72.545203224472772, 23.09879278585289 ], [ 72.545162200429871, 23.101049036677633 ], [ 72.542723169154513, 23.101011065814642 ], [ 72.540284143042228, 23.100973057325749 ], [ 72.540243032511668, 23.103229299175222 ], [ 72.540201916812549, 23.10548554031082 ], [ 72.540160795944473, 23.107741780732482 ], [ 72.540119669907057, 23.109998020440152 ], [ 72.54007853869993, 23.112254259433758 ], [ 72.54003740232271, 23.114510497713262 ] ], [ [ 72.566747560541856, 23.121695639352115 ], [ 72.566788264649787, 23.119439357966577 ], [ 72.566828963642692, 23.11718307586823 ], [ 72.569268331057202, 23.117220699072682 ], [ 72.569227672768932, 23.119476985259876 ], [ 72.569187009370722, 23.121733270734389 ], [ 72.566747560541856, 23.121695639352115 ] ] ] } },
{ "type": "Feature", "properties": { "ward_id": "Ahmedabad_WARD_5_0", "ward_name": "South-East Ward 6", "city": "Ahmedabad", "lst_excess": 2.6342720482132247, "sevi": 24.652453526865294, "built_fraction": 0.50920071725659966, "green_ratio": 0.2449407796451914, "ghsl_height": 20.744671504965623, "albedo": 0.23938749893896952, "qf": 7.2771236949325191 }, "geometry": { "type": "Polygon", "coordinates": [ [ [ 72.574417472719276, 22.966085216237197 ], [ 72.574377196297164, 22.968341554118137 ], [ 72.571940499022205, 22.968304237873895 ], [ 72.57190017715206, 22.970560570970111 ], [ 72.569463444593552, 22.970523213257334 ], [ 72.567026717125117, 22.970485818152412 ], [ 72.566986309423896, 22.972742142375136 ], [ 72.569423077265185, 22.972779541564421 ], [ 72.56938270484639, 22.975035869162465 ], [ 72.571819518156431, 22.975073235035921 ], [ 72.571779181030209, 22.977329566005395 ], [ 72.571738838817879, 22.979585896265846 ], [ 72.569301944735926, 22.979548522231187 ], [ 72.566865055745566, 22.979511110788042 ], [ 72.566824627659969, 22.981767432173726 ], [ 72.566784194477336, 22.984023752850007 ], [ 72.569221164259204, 22.984061172463043 ], [ 72.57165813913339, 22.984098554659436 ], [ 72.574095119094807, 22.984135899438861 ], [ 72.57653210413838, 22.984173206801007 ], [ 72.578969094259023, 22.984210476745556 ], [ 72.581406089451633, 22.984247709272193 ], [ 72.583843089711124, 22.984284904380594 ], [ 72.586280095032436, 22.984322062070454 ], [ 72.588717105410424, 22.98435918234145 ], [ 72.591154120840031, 22.984396265193272 ], [ 72.593591141316182, 22.984433310625601 ], [ 72.596028166833761, 22.984470318638127 ], [ 72.598465197387711, 22.984507289230539 ], [ 72.600902232972913, 22.984544222402508 ], [ 72.600942100545339, 22.982287844907564 ], [ 72.603379100753187, 22.982324736630932 ], [ 72.603418922901398, 22.980068354400682 ], [ 72.603458740029254, 22.977811971463044 ], [ 72.60589566446528, 22.977848817722279 ], [ 72.605935436184524, 22.975592430053926 ], [ 72.605975202889269, 22.973336041678422 ], [ 72.606014964579842, 22.971079652595826 ], [ 72.608451772879008, 22.971116449388429 ], [ 72.608491489182086, 22.968860055579896 ], [ 72.608531200476861, 22.966603661064514 ], [ 72.61096793304155, 22.966640412430397 ], [ 72.61100759896442, 22.964384013193659 ], [ 72.60857090676366, 22.964347265842353 ], [ 72.608610608042923, 22.962090869913467 ], [ 72.608650304314963, 22.959834473277908 ], [ 72.606213697833667, 22.95979769657858 ], [ 72.606253429447207, 22.957541303254676 ], [ 72.603816868325765, 22.957504493201228 ], [ 72.603856635270617, 22.955248103192865 ], [ 72.601420119508305, 22.955211259793646 ], [ 72.598983608767341, 22.955174379026754 ], [ 72.596547103052814, 22.955137460892502 ], [ 72.594110602369781, 22.95510050539119 ], [ 72.59167410672336, 22.955063512523147 ], [ 72.589237616118623, 22.955026482288673 ], [ 72.586801130560644, 22.9549894146881 ], [ 72.584364650054525, 22.954952309721719 ], [ 72.581928174605338, 22.954915167389871 ], [ 72.579491704218157, 22.954877987692846 ], [ 72.577055238898069, 22.954840770630987 ], [ 72.574618778650191, 22.954803516204581 ], [ 72.572182323479552, 22.954766224413962 ], [ 72.572142032111401, 22.95702256176207 ], [ 72.572101735660524, 22.959278898401678 ], [ 72.572061434126525, 22.961535234332722 ], [ 72.574498010326437, 22.961572538349564 ], [ 72.574457744062244, 22.963828877647654 ], [ 72.574417472719276, 22.966085216237197 ] ] ] } },
{ "type": "Feature", "properties": { "ward_id": "Ahmedabad_WARD_6_0", "ward_name": "North-West Ward 7", "city": "Ahmedabad", "lst_excess": 7.2136719175885844, "sevi": 45.850949374699375, "built_fraction": 0.69241706148789484, "green_ratio": 0.19218916947250281, "ghsl_height": 25.242385962802629, "albedo": 0.21862883397466729, "qf": 11.89207561728395 }, "geometry": { "type": "Polygon", "coordinates": [ [ [ 72.49494725007871, 23.04609563162423 ], [ 72.492509302535154, 23.046056971796688 ], [ 72.492467505172073, 23.048313147309912 ], [ 72.492425702547678, 23.050569322107954 ], [ 72.492383894661558, 23.052825496190771 ], [ 72.492342081513343, 23.055081669558291 ], [ 72.494780191225374, 23.055120346232261 ], [ 72.494738413369532, 23.057376523096384 ], [ 72.494696630255902, 23.059632699245228 ], [ 72.494654841884127, 23.06188887467875 ], [ 72.497093078534576, 23.06192752643906 ], [ 72.497051325474757, 23.064183705365455 ], [ 72.497009567161101, 23.066439883576539 ], [ 72.499447890211997, 23.066478506195114 ], [ 72.499406167225231, 23.068734687895276 ], [ 72.501844536106788, 23.06877327715549 ], [ 72.504282910232789, 23.068811828852549 ], [ 72.50672128959809, 23.068850342986124 ], [ 72.506679683122854, 23.071106536560247 ], [ 72.50911810831019, 23.071145017318269 ], [ 72.511556538727064, 23.07118346050807 ], [ 72.51399497436833, 23.071221866129328 ], [ 72.513953484438318, 23.073478071541384 ], [ 72.516391965892964, 23.07351644376989 ], [ 72.516433415228917, 23.071260234181704 ], [ 72.518871861303722, 23.07129856466489 ], [ 72.518913264836115, 23.069042350190411 ], [ 72.521351675530283, 23.069080638936263 ], [ 72.521393033269348, 23.066824419579891 ], [ 72.523831408582126, 23.066862666596396 ], [ 72.523872720538023, 23.064606442362539 ], [ 72.526311060468643, 23.064644647657676 ], [ 72.526352326651576, 23.062388418550771 ], [ 72.528790631199257, 23.062426582132517 ], [ 72.528831851619458, 23.060170348156962 ], [ 72.528873066852867, 23.057914113467966 ], [ 72.528914276899897, 23.055657878065585 ], [ 72.528955481760903, 23.053401641949893 ], [ 72.526517339464576, 23.053363494987398 ], [ 72.526558579690047, 23.0511072623129 ], [ 72.526599814725174, 23.048851028925068 ], [ 72.526641044570368, 23.04659479482396 ], [ 72.526682269225986, 23.044338560009617 ], [ 72.524244294288593, 23.044300392142766 ], [ 72.524285554284333, 23.042044160773287 ], [ 72.52432680908619, 23.039787928690572 ], [ 72.524368058694535, 23.037531695894671 ], [ 72.521930210522896, 23.037493502992611 ], [ 72.521971495451751, 23.03523727364529 ], [ 72.522012775182773, 23.032981043584773 ], [ 72.522054049716346, 23.030724812811112 ], [ 72.519616328267418, 23.030686594897468 ], [ 72.517178612020629, 23.030648339487843 ], [ 72.51474090098111, 23.030610046582556 ], [ 72.512303195153947, 23.030571716181939 ], [ 72.509865494544229, 23.030533348286323 ], [ 72.509824017499213, 23.032789558191514 ], [ 72.507386281610906, 23.032751148615258 ], [ 72.507344758836737, 23.035007353620557 ], [ 72.504906987670608, 23.034968902355704 ], [ 72.504865419157099, 23.037225102456688 ], [ 72.50242761271393, 23.037186609495258 ], [ 72.502385998450904, 23.039442804687511 ], [ 72.499948156731463, 23.039404270021514 ], [ 72.499906496708704, 23.041660460300637 ], [ 72.497468619713786, 23.041621883922108 ], [ 72.497426913921117, 23.043878069283675 ], [ 72.49498900165149, 23.043839451184628 ], [ 72.49494725007871, 23.04609563162423 ] ] ] } },
{ "type": "Feature", "properties": { "ward_id": "Ahmedabad_WARD_7_0", "ward_name": "North-West Ward 8", "city": "Ahmedabad", "lst_excess": 8.9011968948869864, "sevi": 52.866535183966057, "built_fraction": 0.74493867493233856, "green_ratio": 0.17878873527905786, "ghsl_height": 26.645270645892765, "albedo": 0.20998904249871991, "qf": 13.44524610489357 }, "geometry": { "type": "Polygon", "coordinates": [ [ [ 72.506013267346489, 23.107205536473817 ], [ 72.503574197301248, 23.107166951052161 ], [ 72.503532461110424, 23.109423128269604 ], [ 72.501093355637337, 23.109384501016258 ], [ 72.501051573521281, 23.111640673318764 ], [ 72.498612432621144, 23.111602004225738 ], [ 72.49857060456965, 23.113858171608882 ], [ 72.496131428243231, 23.113819460668193 ], [ 72.496089554246055, 23.116075623127568 ], [ 72.498528771260794, 23.116114338275569 ], [ 72.498486932694206, 23.118370504225727 ], [ 72.500926195660512, 23.118409185928421 ], [ 72.503365463879831, 23.118447829978034 ], [ 72.505804737347049, 23.11848643637423 ], [ 72.508244016057048, 23.118525005116698 ], [ 72.510683300004729, 23.118563536205084 ], [ 72.51064165967864, 23.120819722415249 ], [ 72.513080989559796, 23.120858220032293 ], [ 72.513039384706744, 23.123114409709675 ], [ 72.512997774625447, 23.125370598671168 ], [ 72.512956159315507, 23.127626786916714 ], [ 72.515395616559005, 23.127665259412638 ], [ 72.515354036741769, 23.129921451121692 ], [ 72.51779353993129, 23.129959890121619 ], [ 72.517751995616976, 23.132216085290292 ], [ 72.5177104460831, 23.134472279743107 ], [ 72.517668891329251, 23.136728473480023 ], [ 72.517627331355044, 23.138984666500978 ], [ 72.520067002704849, 23.139023084511713 ], [ 72.522506679270293, 23.139061464829933 ], [ 72.522465195571854, 23.141317665474762 ], [ 72.524904918096638, 23.141356012263955 ], [ 72.527344645827199, 23.141394321355897 ], [ 72.52978437875845, 23.141432592750252 ], [ 72.529825740209219, 23.139176379626253 ], [ 72.53226543758602, 23.139214609171166 ], [ 72.532306753096734, 23.136958391180407 ], [ 72.532348063417786, 23.134702172474491 ], [ 72.534787684499236, 23.134740356030768 ], [ 72.534828948895949, 23.132484132462718 ], [ 72.537268534426133, 23.132522274189746 ], [ 72.539708125135007, 23.132560378234267 ], [ 72.539749302886918, 23.130304145669754 ], [ 72.539790475465622, 23.128047912390659 ], [ 72.539831642871562, 23.125791678397057 ], [ 72.539872805105077, 23.123535443688986 ], [ 72.539913962166565, 23.121279208266515 ], [ 72.539955114056397, 23.119022972129699 ], [ 72.539996260774984, 23.116766735278595 ], [ 72.54003740232271, 23.114510497713262 ], [ 72.54007853869993, 23.112254259433758 ], [ 72.540119669907057, 23.109998020440152 ], [ 72.540160795944473, 23.107741780732482 ], [ 72.540201916812549, 23.10548554031082 ], [ 72.540243032511668, 23.103229299175222 ], [ 72.540284143042228, 23.100973057325749 ], [ 72.537845122098119, 23.10093501121127 ], [ 72.535406106327301, 23.100896927471531 ], [ 72.532967095734875, 23.10085880610686 ], [ 72.533008323073616, 23.098602575966389 ], [ 72.530569358322708, 23.098564421126227 ], [ 72.528130398760027, 23.098526228665861 ], [ 72.525691444390674, 23.098487998585618 ], [ 72.525732788503859, 23.096231780190216 ], [ 72.523293879984692, 23.096193516651677 ], [ 72.520854976668673, 23.096155215498001 ], [ 72.518416078560932, 23.096116876729521 ], [ 72.518374612493659, 23.098373082628896 ], [ 72.515935678948708, 23.098334702072414 ], [ 72.515894167011993, 23.10059090308317 ], [ 72.513455198030584, 23.100552480730688 ], [ 72.51341364021421, 23.102808676848408 ], [ 72.510974635797126, 23.102770212691951 ], [ 72.508535636609906, 23.102731710909726 ], [ 72.508493992238911, 23.104987897943797 ], [ 72.506054957622283, 23.104949354345852 ], [ 72.506013267346489, 23.107205536473817 ] ] ] } },
{ "type": "Feature", "properties": { "ward_id": "Ahmedabad_WARD_8_0", "ward_name": "North-East Ward 9", "city": "Ahmedabad", "lst_excess": 4.5796979316979316, "sevi": 34.202501889644751, "built_fraction": 0.59833282312925162, "green_ratio": 0.22151250085892943, "ghsl_height": 23.06849601456744, "albedo": 0.22784000721500722, "qf": 9.4387812993884435 }, "geometry": { "type": "Polygon", "coordinates": [ [ [ 72.589749917457468, 23.063368465634937 ], [ 72.589709706363905, 23.065624801447456 ], [ 72.587271233082291, 23.065587572771005 ], [ 72.587230976338518, 23.067843903820187 ], [ 72.587190714529228, 23.070100234158932 ], [ 72.587150447654082, 23.072356563787189 ], [ 72.587110175712709, 23.074612892704895 ], [ 72.587069898704712, 23.076869220912002 ], [ 72.587029616629707, 23.079125548408438 ], [ 72.589468333529055, 23.079162801405477 ], [ 72.589428087007519, 23.081419132245088 ], [ 72.589387835423324, 23.083675462374043 ], [ 72.589347578776128, 23.085931791792294 ], [ 72.591786422616636, 23.085969019348038 ], [ 72.591746201542563, 23.088225352105713 ], [ 72.591705975409809, 23.090481684152707 ], [ 72.591665744218034, 23.092738015488941 ], [ 72.594104715042818, 23.092775217579721 ], [ 72.596543690921919, 23.092812382054252 ], [ 72.598982671850194, 23.092849508912213 ], [ 72.601421657822598, 23.092886598153289 ], [ 72.601381584182477, 23.095142944940175 ], [ 72.603820615847567, 23.095180000594187 ], [ 72.606259652546896, 23.095217018626592 ], [ 72.60869869427539, 23.095253999037084 ], [ 72.611137741027918, 23.095290941825333 ], [ 72.611177652050941, 23.093034578942426 ], [ 72.613616663167207, 23.093071480094352 ], [ 72.616055679296906, 23.093108343627502 ], [ 72.618494700434937, 23.093145169541575 ], [ 72.620933726576212, 23.093181957836247 ], [ 72.623372757715629, 23.093218708511213 ], [ 72.623412460465914, 23.090962324891176 ], [ 72.623452158223543, 23.088705940562086 ], [ 72.623491850988913, 23.086449555523995 ], [ 72.623531538762364, 23.084193169776963 ], [ 72.623571221544282, 23.081936783321048 ], [ 72.623610899335034, 23.079680396156302 ], [ 72.623650572134991, 23.077424008282787 ], [ 72.626089323810973, 23.077460693388016 ], [ 72.62612895100429, 23.075204300813489 ], [ 72.626168573212667, 23.07294790753043 ], [ 72.626208190436458, 23.070691513538918 ], [ 72.626247802676048, 23.068435118838995 ], [ 72.626287409931777, 23.066178723430703 ], [ 72.626327012204058, 23.063922327314128 ], [ 72.623888504148766, 23.063885666160758 ], [ 72.623928142023516, 23.061629273327465 ], [ 72.621489679541639, 23.061592578602848 ], [ 72.621529353008683, 23.059336189056733 ], [ 72.619090936099497, 23.059299460769214 ], [ 72.619130645148616, 23.057043074514166 ], [ 72.616692273811353, 23.057006312672115 ], [ 72.614253907476481, 23.056969513276396 ], [ 72.611815546149117, 23.056932676327325 ], [ 72.609377189834348, 23.05689580182521 ], [ 72.606938838537275, 23.056858889770371 ], [ 72.604500492263, 23.056821940163111 ], [ 72.602062151016639, 23.05678495300376 ], [ 72.599623814803294, 23.056747928292612 ], [ 72.597185483628039, 23.056710866029995 ], [ 72.594747157495988, 23.056673766216225 ], [ 72.594707042720898, 23.058930112252032 ], [ 72.592268681066614, 23.058892970843011 ], [ 72.592228520667192, 23.061149312124478 ], [ 72.589790123491426, 23.061112129112217 ], [ 72.589749917457468, 23.063368465634937 ] ] ] } },
{ "type": "Feature", "properties": { "ward_id": "Ahmedabad_WARD_9_0", "ward_name": "North-West Ward 10", "city": "Ahmedabad", "lst_excess": 8.8105756184030302, "sevi": 52.503982757231491, "built_fraction": 0.74220238900974933, "green_ratio": 0.17557719160422205, "ghsl_height": 26.469120739666426, "albedo": 0.21111652969140277, "qf": 13.323022459914592 }, "geometry": { "type": "Polygon", "coordinates": [ [ [ 72.460562439493827, 23.059087691353223 ], [ 72.460520083246934, 23.061343807443887 ], [ 72.462958245813482, 23.061382984872903 ], [ 72.465396413704894, 23.061422124756319 ], [ 72.467834586916055, 23.06146122709378 ], [ 72.467792347035527, 23.063717355251274 ], [ 72.470230566127583, 23.063756424295676 ], [ 72.472668790529568, 23.063795455789382 ], [ 72.472626626477052, 23.066051591732542 ], [ 72.472584457119297, 23.068307726958963 ], [ 72.472542282455905, 23.070563861468589 ], [ 72.472500102486478, 23.072819995261362 ], [ 72.470061715766974, 23.072780946769779 ], [ 72.470019489898988, 23.07503707559583 ], [ 72.467581067899275, 23.074997985283307 ], [ 72.467538796122554, 23.077254109138206 ], [ 72.465100338843413, 23.077214976996771 ], [ 72.46505802114774, 23.079471095876102 ], [ 72.462619528589983, 23.079431921897765 ], [ 72.460181041360229, 23.079392710341136 ], [ 72.460138637129532, 23.08164881997391 ], [ 72.46009622756533, 23.083904928888845 ], [ 72.462534796011894, 23.083944148978759 ], [ 72.464973369787245, 23.083983331482202 ], [ 72.464931036121641, 23.086239448208843 ], [ 72.467369655837544, 23.086278597384151 ], [ 72.469808280872442, 23.086317708968231 ], [ 72.472246911221248, 23.086356782960763 ], [ 72.474685546878817, 23.086395819361407 ], [ 72.47712418784009, 23.086434818169813 ], [ 72.477166318417503, 23.084178680190664 ], [ 72.479604924058535, 23.084217637168294 ], [ 72.479647008724044, 23.081961494234104 ], [ 72.482085579044039, 23.082000409388922 ], [ 72.482127617807862, 23.079744261504118 ], [ 72.484566152806053, 23.079783134844103 ], [ 72.484608145678379, 23.077526982013104 ], [ 72.487046645353985, 23.077565813546233 ], [ 72.487088592345003, 23.075309655773456 ], [ 72.489527056697241, 23.075348445507714 ], [ 72.489568957817184, 23.073092282797575 ], [ 72.492007386845245, 23.073131030740942 ], [ 72.492049242104315, 23.070874863097863 ], [ 72.494487635807417, 23.07091356925832 ], [ 72.494529445215818, 23.068657396686717 ], [ 72.496967803593208, 23.068696061072245 ], [ 72.497009567161101, 23.066439883576539 ], [ 72.497051325474757, 23.064183705365455 ], [ 72.497093078534576, 23.06192752643906 ], [ 72.494654841884127, 23.06188887467875 ], [ 72.494696630255902, 23.059632699245228 ], [ 72.494738413369532, 23.057376523096384 ], [ 72.494780191225374, 23.055120346232261 ], [ 72.492342081513343, 23.055081669558291 ], [ 72.492383894661558, 23.052825496190771 ], [ 72.492425702547678, 23.050569322107954 ], [ 72.492467505172073, 23.048313147309912 ], [ 72.490029522355371, 23.048274445745896 ], [ 72.490071360252514, 23.046018274448166 ], [ 72.48763342323592, 23.045979539578983 ], [ 72.48519549149043, 23.045940767189482 ], [ 72.485237405178353, 23.043684603619457 ], [ 72.482799519236906, 23.043645797937565 ], [ 72.480361638576369, 23.043606954740092 ], [ 72.477923763201872, 23.043568074027363 ], [ 72.477965793180928, 23.041311922436538 ], [ 72.475527963619072, 23.041273008448613 ], [ 72.473090139353033, 23.041234056950181 ], [ 72.470652320387913, 23.041195067941569 ], [ 72.470610168845411, 23.043451206800974 ], [ 72.468172314665949, 23.043412176030543 ], [ 72.468130117291594, 23.045668309921549 ], [ 72.468087914605348, 23.047924443096065 ], [ 72.465649984682159, 23.047885366299504 ], [ 72.465692227898558, 23.045629237381323 ], [ 72.463254343822513, 23.045590127323742 ], [ 72.460816465068561, 23.045550979749141 ], [ 72.460774140793035, 23.0478071001424 ], [ 72.46073181118993, 23.050063219818707 ], [ 72.46068947625885, 23.052319338778005 ], [ 72.460647135999409, 23.054575457020224 ], [ 72.460604790411196, 23.056831574545321 ], [ 72.460562439493827, 23.059087691353223 ] ] ] } },
{ "type": "Feature", "properties": { "ward_id": "Ahmedabad_WARD_10_0", "ward_name": "South-West Ward 11", "city": "Ahmedabad", "lst_excess": 6.0691782767562472, "sevi": 40.985884409869563, "built_fraction": 0.65502618261826184, "green_ratio": 0.20207035007072136, "ghsl_height": 24.362776402640264, "albedo": 0.22057444994499451, "qf": 10.877832920792081 }, "geometry": { "type": "Polygon", "coordinates": [ [ [ 72.469267583213536, 22.984752443572489 ], [ 72.469225523810351, 22.98700859607133 ], [ 72.469183459105494, 22.989264747855216 ], [ 72.469141389098567, 22.991520898924097 ], [ 72.46670447090132, 22.991481928494764 ], [ 72.466662355183985, 22.99373807459553 ], [ 72.464225401886722, 22.993699062489711 ], [ 72.464183240448804, 22.995955203617953 ], [ 72.464141073697462, 22.998211344030736 ], [ 72.464098901632298, 23.000467483728006 ], [ 72.464056724252941, 23.002723622709695 ], [ 72.464014541558996, 23.004979760975754 ], [ 72.466451696970381, 23.005018794369256 ], [ 72.466409549399501, 23.00727493617757 ], [ 72.466367396518365, 23.009531077270257 ], [ 72.466325238326519, 23.011787217647271 ], [ 72.466283074823579, 23.014043357308552 ], [ 72.468720397329349, 23.014082370274497 ], [ 72.471157725141495, 23.014121345779923 ], [ 72.473595058254944, 23.014160283824509 ], [ 72.476032396664593, 23.014199184407925 ], [ 72.478469740365341, 23.014238047529826 ], [ 72.478511701595579, 23.011981886637987 ], [ 72.480949010126636, 23.012020708064199 ], [ 72.483386323938248, 23.012059492032328 ], [ 72.485823643025299, 23.012098238542048 ], [ 72.485865477616855, 23.009842064246222 ], [ 72.488302761522462, 23.009880769075718 ], [ 72.490740050692949, 23.009919436450232 ], [ 72.493177345123229, 23.009958066369439 ], [ 72.493219053103516, 23.007701878707252 ], [ 72.495656312340614, 23.007740466961717 ], [ 72.498093576826918, 23.0077790177643 ], [ 72.498135198666958, 23.005522820974168 ], [ 72.500572427953841, 23.005561330123733 ], [ 72.500614004111668, 23.003305128419139 ], [ 72.500655575031232, 23.001048926000966 ], [ 72.500697140712944, 22.998792722869254 ], [ 72.503134253937162, 22.998831181981053 ], [ 72.503175773957778, 22.996574973939691 ], [ 72.503217288746413, 22.994318765185046 ], [ 72.503258798303406, 22.99206255571718 ], [ 72.500821806334685, 22.992024109193494 ], [ 72.500863351068787, 22.989767903208229 ], [ 72.498426404744336, 22.989729423460421 ], [ 72.498467984645345, 22.987473220961633 ], [ 72.496031083964382, 22.987434707998062 ], [ 72.496072699022122, 22.985178508989609 ], [ 72.493635843983867, 22.985139962818639 ], [ 72.491198994196026, 22.985101379236927 ], [ 72.491240684791862, 22.98284518793438 ], [ 72.488803880650636, 22.982806571158026 ], [ 72.488845606377382, 22.980550383357503 ], [ 72.486408847882032, 22.980511733394863 ], [ 72.486450608729527, 22.978255549100226 ], [ 72.484013895879244, 22.978216865959652 ], [ 72.484055691837312, 22.97596068517478 ], [ 72.481619024631314, 22.975921968864629 ], [ 72.479182362699603, 22.975883215161694 ], [ 72.479224234127329, 22.973627042122011 ], [ 72.476787617843826, 22.973588255262264 ], [ 72.47682952435629, 22.97133208574401 ], [ 72.474392953720226, 22.971293265735806 ], [ 72.474434895307297, 22.969037099742863 ], [ 72.471998370317863, 22.968998246594545 ], [ 72.471956388372917, 22.97125440834397 ], [ 72.471914401134114, 22.973510569378998 ], [ 72.469477800718082, 22.973471670356137 ], [ 72.469435767817373, 22.975727826428834 ], [ 72.469393729616968, 22.977983981786871 ], [ 72.469351686116454, 22.980240136430204 ], [ 72.469309637315433, 22.982496290358764 ], [ 72.469267583213536, 22.984752443572489 ] ] ] } },
{ "type": "Feature", "properties": { "ward_id": "Ahmedabad_WARD_11_0", "ward_name": "South-East Ward 12", "city": "Ahmedabad", "lst_excess": 2.0047540983606558, "sevi": 21.360837453378437, "built_fraction": 0.47705617573076592, "green_ratio": 0.25907441451990632, "ghsl_height": 19.928585306618093, "albedo": 0.24321881559545491, "qf": 6.5690848078757913 }, "geometry": { "type": "Polygon", "coordinates": [ [ [ 72.605935436184524, 22.975592430053926 ], [ 72.60589566446528, 22.977848817722279 ], [ 72.603458740029254, 22.977811971463044 ], [ 72.603418922901398, 22.980068354400682 ], [ 72.603379100753187, 22.982324736630932 ], [ 72.600942100545339, 22.982287844907564 ], [ 72.600902232972913, 22.984544222402508 ], [ 72.600862360374293, 22.986800599189817 ], [ 72.600822482749138, 22.989056975269438 ], [ 72.603259604182838, 22.989093879076762 ], [ 72.603219761949561, 22.991350258476867 ], [ 72.603179914694081, 22.993606637169297 ], [ 72.605617121993035, 22.993643511595849 ], [ 72.605577310144341, 22.99589989360495 ], [ 72.605537493277765, 22.998156274906396 ], [ 72.607974786458755, 22.998193119936044 ], [ 72.607935005013886, 23.000449504550357 ], [ 72.607895218555484, 23.002705888457012 ], [ 72.610332597635249, 23.002742704073622 ], [ 72.612769981723773, 23.002779482235571 ], [ 72.612809687291048, 23.000523090299719 ], [ 72.615247035937159, 23.000559826998209 ], [ 72.617684389581498, 23.000596526245499 ], [ 72.620121748218963, 23.00063318804127 ], [ 72.620161327458774, 22.99837678338524 ], [ 72.622598650642175, 22.998413403733093 ], [ 72.625035978808143, 22.998449986632885 ], [ 72.627473311951604, 22.998486532084307 ], [ 72.629910650067472, 22.998523040087058 ], [ 72.629950062569264, 22.996266618764746 ], [ 72.63238736521393, 22.99630308533888 ], [ 72.634824672820457, 22.996339514467806 ], [ 72.637261985383716, 22.996375906151211 ], [ 72.637301271617218, 22.994119472196285 ], [ 72.63973854869765, 22.99415582246662 ], [ 72.639777789550436, 22.991899383838636 ], [ 72.642215031147259, 22.99193569270388 ], [ 72.642254226629504, 22.989679249407246 ], [ 72.642293417171373, 22.987422805405043 ], [ 72.639856256418824, 22.987386504465473 ], [ 72.639895482435193, 22.985130063720423 ], [ 72.639934703506796, 22.982873622269778 ], [ 72.637497628522581, 22.98283729183375 ], [ 72.637536885053791, 22.980580853644064 ], [ 72.6375761366359, 22.978324414748791 ], [ 72.635139147403265, 22.978288054832429 ], [ 72.635178434430074, 22.97603161920193 ], [ 72.635217716503419, 22.973775182865829 ], [ 72.63525699362367, 22.971518745824181 ], [ 72.63282013050879, 22.971482360417749 ], [ 72.630383272351708, 22.971445937611026 ], [ 72.627946419157553, 22.971409477404315 ], [ 72.627985812457354, 22.969153051591448 ], [ 72.625549004607876, 22.969116557971319 ], [ 72.623112201731104, 22.969080026955911 ], [ 72.620675403832095, 22.969043458545521 ], [ 72.618238610915981, 22.969006852740478 ], [ 72.615801822987848, 22.968970209541084 ], [ 72.613365040052756, 22.968933528947641 ], [ 72.61092826211582, 22.968896810960477 ], [ 72.61096793304155, 22.966640412430397 ], [ 72.608531200476861, 22.966603661064514 ], [ 72.608491489182086, 22.968860055579896 ], [ 72.608451772879008, 22.971116449388429 ], [ 72.606014964579842, 22.971079652595826 ], [ 72.605975202889269, 22.973336041678422 ], [ 72.605935436184524, 22.975592430053926 ] ] ] } },
{ "type": "Feature", "properties": { "ward_id": "Ahmedabad_WARD_12_0", "ward_name": "North-West Ward 13", "city": "Ahmedabad", "lst_excess": 8.8338787477954135, "sevi": 52.704479717813051, "built_fraction": 0.74419235559964725, "green_ratio": 0.17809481922398587, "ghsl_height": 26.59552028218695, "albedo": 0.21147809376837154, "qf": 13.402288727219283 }, "geometry": { "type": "MultiPolygon", "coordinates": [ [ [ [ 72.482085579044039, 23.082000409388922 ], [ 72.479647008724044, 23.081961494234104 ], [ 72.479604924058535, 23.084217637168294 ], [ 72.477166318417503, 23.084178680190664 ], [ 72.47712418784009, 23.086434818169813 ], [ 72.474685546878817, 23.086395819361407 ], [ 72.474643370379297, 23.088651952381092 ], [ 72.477082051964075, 23.088690955431975 ], [ 72.477039910789102, 23.090947091977082 ], [ 72.476997764314746, 23.093203227805081 ], [ 72.47695561254065, 23.095459362915907 ], [ 72.479394421326802, 23.095498341086103 ], [ 72.479352304896864, 23.097754479718631 ], [ 72.481791159622802, 23.097793424514428 ], [ 72.484230019639085, 23.09783233169658 ], [ 72.486668884940599, 23.097871201264748 ], [ 72.489107755522241, 23.097910033218607 ], [ 72.489065796398577, 23.100166188049361 ], [ 72.491504712906647, 23.100204986607203 ], [ 72.493943634685024, 23.100243747545985 ], [ 72.496382561728623, 23.10028247086538 ], [ 72.49634071930025, 23.102538637623482 ], [ 72.496298871611387, 23.104794803665278 ], [ 72.49873788523557, 23.104833497778081 ], [ 72.49869607295372, 23.107089667310277 ], [ 72.498654255415701, 23.109345836126181 ], [ 72.498612432621144, 23.111602004225738 ], [ 72.501051573521281, 23.111640673318764 ], [ 72.501093355637337, 23.109384501016258 ], [ 72.503532461110424, 23.109423128269604 ], [ 72.503574197301248, 23.107166951052161 ], [ 72.506013267346489, 23.107205536473817 ], [ 72.506054957622283, 23.104949354345852 ], [ 72.508493992238911, 23.104987897943797 ], [ 72.508535636609906, 23.102731710909726 ], [ 72.510974635797126, 23.102770212691951 ], [ 72.51341364021421, 23.102808676848408 ], [ 72.513455198030584, 23.100552480730688 ], [ 72.515894167011993, 23.10059090308317 ], [ 72.515935678948708, 23.098334702072414 ], [ 72.518374612493659, 23.098373082628896 ], [ 72.518416078560932, 23.096116876729521 ], [ 72.520854976668673, 23.096155215498001 ], [ 72.520896396876694, 23.093899004714416 ], [ 72.520937811876863, 23.091642793216113 ], [ 72.518498995055737, 23.09160446278608 ], [ 72.518540445484049, 23.089348254742131 ], [ 72.518581890700176, 23.087092045983443 ], [ 72.518623330704457, 23.084835836510084 ], [ 72.518664765497334, 23.08257962632209 ], [ 72.518706195079147, 23.080323415419549 ], [ 72.516267586595944, 23.08028506824742 ], [ 72.516309051576869, 23.078028860802807 ], [ 72.516350511342409, 23.075772652643611 ], [ 72.516391965892964, 23.07351644376989 ], [ 72.513953484438318, 23.073478071541384 ], [ 72.51399497436833, 23.071221866129328 ], [ 72.511556538727064, 23.07118346050807 ], [ 72.50911810831019, 23.071145017318269 ], [ 72.506679683122854, 23.071106536560247 ], [ 72.50672128959809, 23.068850342986124 ], [ 72.504282910232789, 23.068811828852549 ], [ 72.501844536106788, 23.06877327715549 ], [ 72.499406167225231, 23.068734687895276 ], [ 72.499447890211997, 23.066478506195114 ], [ 72.497009567161101, 23.066439883576539 ], [ 72.496967803593208, 23.068696061072245 ], [ 72.494529445215818, 23.068657396686717 ], [ 72.494487635807417, 23.07091356925832 ], [ 72.492049242104315, 23.070874863097863 ], [ 72.492007386845245, 23.073131030740942 ], [ 72.489568957817184, 23.073092282797575 ], [ 72.489527056697241, 23.075348445507714 ], [ 72.487088592345003, 23.075309655773456 ], [ 72.487046645353985, 23.077565813546233 ], [ 72.484608145678379, 23.077526982013104 ], [ 72.484566152806053, 23.079783134844103 ], [ 72.482127617807862, 23.079744261504118 ], [ 72.482085579044039, 23.082000409388922 ] ] ], [ [ [ 72.49857060456965, 23.113858171608882 ], [ 72.498612432621144, 23.111602004225738 ], [ 72.496173296977958, 23.111563297492218 ], [ 72.496131428243231, 23.113819460668193 ], [ 72.49857060456965, 23.113858171608882 ] ] ] ] } },
{ "type": "Feature", "properties": { "ward_id": "Ahmedabad_WARD_13_0", "ward_name": "Central Ward 14", "city": "Ahmedabad", "lst_excess": 5.0595244466288047, "sevi": 36.020452162516385, "built_fraction": 0.60877352555701181, "green_ratio": 0.21810196592398426, "ghsl_height": 23.21687254259502, "albedo": 0.22662284658511722, "qf": 9.7494007754477927 }, "geometry": { "type": "Polygon", "coordinates": [ [ [ 72.558417106322793, 23.042575038498008 ], [ 72.55837641377228, 23.044831327708064 ], [ 72.558335716098867, 23.047087616206696 ], [ 72.555897633560321, 23.047049932038984 ], [ 72.555856890219133, 23.049306215720939 ], [ 72.555816141749162, 23.051562498691219 ], [ 72.555775388150053, 23.053818780949758 ], [ 72.555734629421394, 23.056075062496497 ], [ 72.553296389804231, 23.056037324361508 ], [ 72.55325558538118, 23.058293601086596 ], [ 72.553214775822724, 23.060549877099643 ], [ 72.553173961128493, 23.062806152400576 ], [ 72.553133141298105, 23.06506242698935 ], [ 72.555571543203854, 23.065100181564315 ], [ 72.555530758821831, 23.067356459551192 ], [ 72.555489969307985, 23.069612736825917 ], [ 72.557928457520831, 23.069650462051392 ], [ 72.560366950860782, 23.069688149706263 ], [ 72.56280544932271, 23.06972579979022 ], [ 72.56524395290154, 23.069763412302926 ], [ 72.56768246159217, 23.069800987244083 ], [ 72.570120975389472, 23.069838524613356 ], [ 72.57255949428837, 23.069876024410434 ], [ 72.574998018283736, 23.069913486634995 ], [ 72.577436547370482, 23.069950911286714 ], [ 72.57987508154352, 23.069988298365292 ], [ 72.582313620797706, 23.070025647870402 ], [ 72.584752165127981, 23.070062959801717 ], [ 72.587190714529228, 23.070100234158932 ], [ 72.587230976338518, 23.067843903820187 ], [ 72.587271233082291, 23.065587572771005 ], [ 72.589709706363905, 23.065624801447456 ], [ 72.589749917457468, 23.063368465634937 ], [ 72.589790123491426, 23.061112129112217 ], [ 72.592228520667192, 23.061149312124478 ], [ 72.592268681066614, 23.058892970843011 ], [ 72.594707042720898, 23.058930112252032 ], [ 72.594747157495988, 23.056673766216225 ], [ 72.594787267222756, 23.054417419470674 ], [ 72.592348986704465, 23.054380286150334 ], [ 72.592389131943662, 23.052123942739222 ], [ 72.59242927213019, 23.049867598618352 ], [ 72.589991077779757, 23.049830435847895 ], [ 72.590031253463778, 23.047574095065286 ], [ 72.59007142409078, 23.045317753572899 ], [ 72.590111589661163, 23.043061411370786 ], [ 72.587673522000998, 23.043024223218151 ], [ 72.587713723049205, 23.040767884358043 ], [ 72.58775391903643, 23.038511544788193 ], [ 72.585315937499956, 23.038474327221564 ], [ 72.582877961029183, 23.038437072138045 ], [ 72.580439989629213, 23.038399779537951 ], [ 72.578002023305132, 23.038362449421612 ], [ 72.578042376323609, 23.036106125388546 ], [ 72.575604455602544, 23.036068761828101 ], [ 72.575644844057322, 23.033812441156584 ], [ 72.575685227426746, 23.031556119774862 ], [ 72.575725605711227, 23.029299797682977 ], [ 72.573287811610228, 23.029262408837955 ], [ 72.570850022598918, 23.029224982493968 ], [ 72.57080956330212, 23.031481296430727 ], [ 72.568371738879989, 23.031443828504415 ], [ 72.565933919558105, 23.031406323075689 ], [ 72.565893374145134, 23.03366262813028 ], [ 72.563455519418667, 23.03362508110747 ], [ 72.561017669803007, 23.0335874965788 ], [ 72.560977038254649, 23.035843792734312 ], [ 72.56093640158997, 23.038100088178759 ], [ 72.558498476056585, 23.038062457943816 ], [ 72.558457793750762, 23.040318748576571 ], [ 72.558417106322793, 23.042575038498008 ] ] ] } },
{ "type": "Feature", "properties": { "ward_id": "Ahmedabad_WARD_14_0", "ward_name": "South-West Ward 15", "city": "Ahmedabad", "lst_excess": 3.3745909673286354, "sevi": 26.70332105487935, "built_fraction": 0.50953347569222007, "green_ratio": 0.28150342373122644, "ghsl_height": 20.728880881201508, "albedo": 0.24018250943127625, "qf": 7.7015993842978148 }, "geometry": { "type": "Polygon", "coordinates": [ [ [ 72.539691577337621, 22.99940357609173 ], [ 72.539650658561058, 23.001659845874425 ], [ 72.539609734628073, 23.003916114945728 ], [ 72.539568805538252, 23.006172383305593 ], [ 72.539527871291241, 23.008428650953949 ], [ 72.539486931886671, 23.010684917890746 ], [ 72.539445987324115, 23.012941184115924 ], [ 72.539405037603231, 23.015197449629415 ], [ 72.536967563279433, 23.015159523151489 ], [ 72.53692656792974, 23.017415783817253 ], [ 72.536885567415837, 23.019672043771081 ], [ 72.536844561737354, 23.021928303012924 ], [ 72.539282157486724, 23.02196624189925 ], [ 72.539241187128638, 23.02422250456544 ], [ 72.541678828523615, 23.024260410101842 ], [ 72.544116475073736, 23.024298278151615 ], [ 72.544075580537495, 23.026554548366651 ], [ 72.546513272729285, 23.026592383053739 ], [ 72.548950970066443, 23.026630180249462 ], [ 72.548910151373548, 23.028886457997473 ], [ 72.551347894348424, 23.028924221817757 ], [ 72.553785642458834, 23.028961948141951 ], [ 72.5537448996308, 23.031218233407071 ], [ 72.556182693374993, 23.031255926343061 ], [ 72.556141985924555, 23.033512215005157 ], [ 72.558579825303269, 23.03354987454459 ], [ 72.561017669803007, 23.0335874965788 ], [ 72.563455519418667, 23.03362508110747 ], [ 72.565893374145134, 23.03366262813028 ], [ 72.565933919558105, 23.031406323075689 ], [ 72.568371738879989, 23.031443828504415 ], [ 72.57080956330212, 23.031481296430727 ], [ 72.570850022598918, 23.029224982493968 ], [ 72.573287811610228, 23.029262408837955 ], [ 72.575725605711227, 23.029299797682977 ], [ 72.575765978911107, 23.027043474880987 ], [ 72.575806347026784, 23.024787151368951 ], [ 72.575846710058613, 23.02253082714693 ], [ 72.578284387754593, 23.022568166279154 ], [ 72.57832470521663, 23.020311837276289 ], [ 72.578365017600674, 23.018055507563687 ], [ 72.575927420872318, 23.018018176573165 ], [ 72.57596776865492, 23.015761850221541 ], [ 72.576008111355193, 23.013505523160156 ], [ 72.576048448973538, 23.011249195389073 ], [ 72.573610978739936, 23.011211839143506 ], [ 72.573651351737198, 23.008955514737128 ], [ 72.573691719648167, 23.006699189621038 ], [ 72.571254335416398, 23.006661804065907 ], [ 72.571294738691392, 23.004405482318322 ], [ 72.571335136875788, 23.00214915986102 ], [ 72.568897838629056, 23.002111745012453 ], [ 72.568938272162555, 22.999855425927464 ], [ 72.568978700601107, 22.997599106132729 ], [ 72.569019123945054, 22.99534278562831 ], [ 72.566581952095419, 22.995305345588235 ], [ 72.5666224107689, 22.993049028459868 ], [ 72.566662864343442, 22.990792710621804 ], [ 72.564225778434732, 22.990755241324361 ], [ 72.564185284441919, 22.993011555072805 ], [ 72.561748163218937, 22.992974044253391 ], [ 72.559311047105069, 22.992936496001953 ], [ 72.559270467162662, 22.995192800848809 ], [ 72.556833315740761, 22.995155211063665 ], [ 72.554396169438519, 22.995117583843047 ], [ 72.551959028261038, 22.995079919187287 ], [ 72.549521892213392, 22.995042217096689 ], [ 72.547084761300667, 22.99500447757158 ], [ 72.54464763552798, 22.994966700612288 ], [ 72.542210514900376, 22.994928886219121 ], [ 72.542169646860188, 22.997185161555134 ], [ 72.539732490958144, 22.997147305597704 ], [ 72.539691577337621, 22.99940357609173 ] ] ] } },
{ "type": "Feature", "properties": { "ward_id": "Ahmedabad_WARD_15_0", "ward_name": "South-East Ward 16", "city": "Ahmedabad", "lst_excess": 2.1083440498609991, "sevi": 21.983219218007356, "built_fraction": 0.48456634382566582, "green_ratio": 0.25788499686126803, "ghsl_height": 20.121551430364988, "albedo": 0.24278057349116669, "qf": 6.7446896915074879 }, "geometry": { "type": "Polygon", "coordinates": [ [ [ 72.653542215154999, 23.041758684083746 ], [ 72.653503108657844, 23.044015130904373 ], [ 72.653463997237026, 23.046271577018697 ], [ 72.653424880892146, 23.048528022426655 ], [ 72.653385759622864, 23.050784467128178 ], [ 72.653346633428825, 23.053040911123226 ], [ 72.653307502309644, 23.055297354411728 ], [ 72.653268366264953, 23.057553796993638 ], [ 72.65570681202594, 23.057589995493405 ], [ 72.655667711635175, 23.059846441310871 ], [ 72.655628606323305, 23.062102886421748 ], [ 72.658067138170466, 23.062139055239264 ], [ 72.660505674934043, 23.062175186489675 ], [ 72.662944216608906, 23.062211280172665 ], [ 72.665382763189967, 23.062247336287943 ], [ 72.667821314672082, 23.062283354835184 ], [ 72.667860217054027, 23.060026890073935 ], [ 72.670298732845055, 23.060062867135038 ], [ 72.672737253526591, 23.060098806631594 ], [ 72.675175779093536, 23.06013470856329 ], [ 72.6776143095408, 23.060170572929835 ], [ 72.680052844863255, 23.060206399730909 ], [ 72.680091539436049, 23.05794991471619 ], [ 72.682530039044806, 23.057985700054257 ], [ 72.682568688169169, 23.055729210437171 ], [ 72.682607332429271, 23.053472720115 ], [ 72.682645971825451, 23.051216229087817 ], [ 72.68268460635808, 23.048959737355663 ], [ 72.682723236027513, 23.046703244918611 ], [ 72.68276186083412, 23.0444467517767 ], [ 72.682800480778255, 23.042190257930002 ], [ 72.682839095860288, 23.039933763378574 ], [ 72.682877706080561, 23.037677268122458 ], [ 72.682916311439456, 23.035420772161729 ], [ 72.685354410351948, 23.035456481013231 ], [ 72.685392970321772, 23.033199980456175 ], [ 72.687831033561793, 23.033235647898593 ], [ 72.687869548152747, 23.03097914274959 ], [ 72.687908057893594, 23.028722636896404 ], [ 72.687946562784688, 23.026466130339074 ], [ 72.685508621099274, 23.026430474558936 ], [ 72.685547161648984, 23.024173971184709 ], [ 72.683109265325683, 23.024138281790783 ], [ 72.680671373861628, 23.024102554896185 ], [ 72.678233487261892, 23.024066790501227 ], [ 72.678194825190317, 23.026323282189406 ], [ 72.675756902953452, 23.026287476390859 ], [ 72.675718195500451, 23.028543963470806 ], [ 72.673280237627139, 23.028508116260674 ], [ 72.673241484782494, 23.030764598727988 ], [ 72.670803491273503, 23.03072871009828 ], [ 72.670764693027024, 23.032985187948569 ], [ 72.668326663883064, 23.032949257891286 ], [ 72.665888639630353, 23.032913290318813 ], [ 72.66345062027402, 23.03287728523145 ], [ 72.663489540081713, 23.030620819141912 ], [ 72.661051566146497, 23.030584780468399 ], [ 72.65861359711748, 23.030548704284698 ], [ 72.656175632999762, 23.030512590591108 ], [ 72.653737673798432, 23.03047643938795 ], [ 72.651299719518576, 23.030440250675522 ], [ 72.651260597116092, 23.03269669708207 ], [ 72.651221469786663, 23.03495314278247 ], [ 72.651182337529917, 23.037209587776658 ], [ 72.651143200345501, 23.039466032064585 ], [ 72.653581316728847, 23.039502236556867 ], [ 72.653542215154999, 23.041758684083746 ] ] ] } },
{ "type": "Feature", "properties": { "ward_id": "Ahmedabad_WARD_16_0", "ward_name": "South-West Ward 17", "city": "Ahmedabad", "lst_excess": 5.2850776618907149, "sevi": 37.415979772439947, "built_fraction": 0.62510027742660479, "green_ratio": 0.2097714250596994, "ghsl_height": 23.569160345554153, "albedo": 0.22507779182469448, "qf": 10.055264766821182 }, "geometry": { "type": "Polygon", "coordinates": [ [ [ 72.503217288746413, 22.994318765185046 ], [ 72.503175773957778, 22.996574973939691 ], [ 72.503134253937162, 22.998831181981053 ], [ 72.500697140712944, 22.998792722869254 ], [ 72.500655575031232, 23.001048926000966 ], [ 72.500614004111668, 23.003305128419139 ], [ 72.500572427953841, 23.005561330123733 ], [ 72.498135198666958, 23.005522820974168 ], [ 72.498093576826918, 23.0077790177643 ], [ 72.500530846557368, 23.007817531114672 ], [ 72.500489259921849, 23.010073731391898 ], [ 72.500447668046917, 23.01232993095536 ], [ 72.502885023919561, 23.012368415247021 ], [ 72.502843467264029, 23.014624618293762 ], [ 72.502801905373403, 23.016880820626756 ], [ 72.50523934740508, 23.016919275843591 ], [ 72.505197820748748, 23.019175481656081 ], [ 72.507635308480999, 23.019213903592608 ], [ 72.50759381706915, 23.021470112880721 ], [ 72.507552320431216, 23.023726321455172 ], [ 72.50998989434558, 23.023764714288447 ], [ 72.509948432967022, 23.026020926334731 ], [ 72.5099069663667, 23.028277137667377 ], [ 72.512344626480001, 23.028315501381268 ], [ 72.512303195153947, 23.030571716181939 ], [ 72.51474090098111, 23.030610046582556 ], [ 72.517178612020629, 23.030648339487843 ], [ 72.519616328267418, 23.030686594897468 ], [ 72.522054049716346, 23.030724812811112 ], [ 72.524491776362339, 23.030762993228457 ], [ 72.524533005200496, 23.028506757580409 ], [ 72.526970696539735, 23.028544896343902 ], [ 72.529408393065452, 23.028582997614521 ], [ 72.529449535724353, 23.026326752943497 ], [ 72.531887196937049, 23.026364812572009 ], [ 72.531928293925631, 23.024108563039629 ], [ 72.534365919824552, 23.02414658103401 ], [ 72.534406971152976, 23.021890326644698 ], [ 72.536844561737354, 23.021928303012924 ], [ 72.536885567415837, 23.019672043771081 ], [ 72.53692656792974, 23.017415783817253 ], [ 72.536967563279433, 23.015159523151489 ], [ 72.539405037603231, 23.015197449629415 ], [ 72.539445987324115, 23.012941184115924 ], [ 72.539486931886671, 23.010684917890746 ], [ 72.539527871291241, 23.008428650953949 ], [ 72.539568805538252, 23.006172383305593 ], [ 72.539609734628073, 23.003916114945728 ], [ 72.539650658561058, 23.001659845874425 ], [ 72.539691577337621, 22.99940357609173 ], [ 72.539732490958144, 22.997147305597704 ], [ 72.53729534021177, 22.997109412202963 ], [ 72.537254386161891, 22.999365678562057 ], [ 72.534817200147288, 22.999327743591316 ], [ 72.534858194626139, 22.997071481371233 ], [ 72.532421054206367, 22.997033513102835 ], [ 72.529983918957541, 22.996995507398093 ], [ 72.53002498911718, 22.994739252756492 ], [ 72.527587899467107, 22.994701213766866 ], [ 72.525150814997772, 22.994663137345608 ], [ 72.525191960816684, 22.992406890298341 ], [ 72.522754921950053, 22.992368780604959 ], [ 72.522796102995329, 22.990112537004755 ], [ 72.522837278850446, 22.987856292692523 ], [ 72.520400325992071, 22.987818153898342 ], [ 72.52035910973062, 22.990074394047593 ], [ 72.517922121661158, 22.990036213667953 ], [ 72.51548513879203, 22.989997995866155 ], [ 72.515526435864956, 22.987741764055095 ], [ 72.513089498606391, 22.987703513006689 ], [ 72.513048161128282, 22.989959740642522 ], [ 72.510611188675057, 22.989921447997379 ], [ 72.508174221437386, 22.989883117931054 ], [ 72.508132797929434, 22.992139336491366 ], [ 72.505695795503343, 22.992100964816583 ], [ 72.503258798303406, 22.99206255571718 ], [ 72.503217288746413, 22.994318765185046 ] ] ] } },
{ "type": "Feature", "properties": { "ward_id": "Ahmedabad_WARD_17_0", "ward_name": "North-East Ward 18", "city": "Ahmedabad", "lst_excess": 2.841617866060282, "sevi": 25.667811441055825, "built_fraction": 0.51764409443552706, "green_ratio": 0.24397984439093989, "ghsl_height": 21.242976190476188, "albedo": 0.23665162520064206, "qf": 7.5765687310504726 }, "geometry": { "type": "Polygon", "coordinates": [ [ [ 72.657832646553686, 23.075677734695216 ], [ 72.657793547404651, 23.077934178797541 ], [ 72.657754443336657, 23.080190622192941 ], [ 72.657715334349362, 23.082447064881375 ], [ 72.66015423661328, 23.082483231544959 ], [ 72.660115163342965, 23.084739677461787 ], [ 72.660076085157726, 23.086996122671653 ], [ 72.66003700205718, 23.089252567174498 ], [ 72.659997914040986, 23.09150901097027 ], [ 72.659958821108731, 23.093765454058914 ], [ 72.659919723260089, 23.096021896440369 ], [ 72.65988062049469, 23.098278338114557 ], [ 72.66231981223973, 23.098314494696009 ], [ 72.662358874337443, 23.096058049089702 ], [ 72.664798030326452, 23.096094164109978 ], [ 72.667237191222014, 23.09613024150088 ], [ 72.667276167081809, 23.093873787335763 ], [ 72.669715292215116, 23.093909823177281 ], [ 72.672154422244404, 23.093945821392904 ], [ 72.674593557164528, 23.093981781982329 ], [ 72.674632406146472, 23.091725315363927 ], [ 72.677071505292687, 23.091761234419536 ], [ 72.679510609319181, 23.091797115852426 ], [ 72.681949718220835, 23.091832959662291 ], [ 72.681988440352669, 23.089576480628239 ], [ 72.684427513468748, 23.089612282919866 ], [ 72.684466190080357, 23.087355799285092 ], [ 72.684504861827719, 23.085099314944568 ], [ 72.686943858511725, 23.085135071835378 ], [ 72.686982484754566, 23.082878582898722 ], [ 72.687021106139014, 23.08062209325654 ], [ 72.689460026404802, 23.08065780476311 ], [ 72.689498602300404, 23.078401310529379 ], [ 72.69193748678795, 23.078436980550148 ], [ 72.694376376122946, 23.078472612970913 ], [ 72.696815270300306, 23.078508207791369 ], [ 72.699254169314898, 23.078543765011229 ], [ 72.70169307316165, 23.078579284630173 ], [ 72.70173144107072, 23.07632277032263 ], [ 72.701769804153116, 23.074066255310498 ], [ 72.701808162409208, 23.071809739593835 ], [ 72.699369380429658, 23.071774231571098 ], [ 72.696930603281203, 23.071738685959716 ], [ 72.6944918309689, 23.071703102759997 ], [ 72.694530306234526, 23.069446597946584 ], [ 72.692091579374619, 23.069410981036253 ], [ 72.689652857360713, 23.069375326542279 ], [ 72.687214140197952, 23.069339634464956 ], [ 72.684775427891424, 23.06930390480461 ], [ 72.68233672044623, 23.069268137561526 ], [ 72.679898017867473, 23.069232332736011 ], [ 72.679936731922822, 23.06697585054291 ], [ 72.679975441107004, 23.064719367644326 ], [ 72.682414062482451, 23.06475516467448 ], [ 72.682452726201817, 23.062498677172972 ], [ 72.682491385055812, 23.060242188966207 ], [ 72.680052844863255, 23.060206399730909 ], [ 72.6776143095408, 23.060170572929835 ], [ 72.675175779093536, 23.06013470856329 ], [ 72.672737253526591, 23.060098806631594 ], [ 72.670298732845055, 23.060062867135038 ], [ 72.667860217054027, 23.060026890073935 ], [ 72.667821314672082, 23.062283354835184 ], [ 72.665382763189967, 23.062247336287943 ], [ 72.662944216608906, 23.062211280172665 ], [ 72.660505674934043, 23.062175186489675 ], [ 72.658067138170466, 23.062139055239264 ], [ 72.658028068527457, 23.064395503581881 ], [ 72.657988993967678, 23.066651951217924 ], [ 72.657949914490771, 23.06890839814734 ], [ 72.657910830096398, 23.071164844370063 ], [ 72.657871740784145, 23.073421289886035 ], [ 72.657832646553686, 23.075677734695216 ] ] ] } },
{ "type": "Feature", "properties": { "ward_id": "Ahmedabad_WARD_18_0", "ward_name": "North-West Ward 19", "city": "Ahmedabad", "lst_excess": 6.1612380610290085, "sevi": 39.992769909688015, "built_fraction": 0.63168504720853857, "green_ratio": 0.23331886631089216, "ghsl_height": 23.757992268746577, "albedo": 0.22495224753694582, "qf": 10.588306684455391 }, "geometry": { "type": "Polygon", "coordinates": [ [ [ 72.518871861303722, 23.07129856466489 ], [ 72.516433415228917, 23.071260234181704 ], [ 72.516391965892964, 23.07351644376989 ], [ 72.516350511342409, 23.075772652643611 ], [ 72.516309051576869, 23.078028860802807 ], [ 72.516267586595944, 23.08028506824742 ], [ 72.518706195079147, 23.080323415419549 ], [ 72.518664765497334, 23.08257962632209 ], [ 72.518623330704457, 23.084835836510084 ], [ 72.518581890700176, 23.087092045983443 ], [ 72.518540445484049, 23.089348254742131 ], [ 72.518498995055737, 23.09160446278608 ], [ 72.520937811876863, 23.091642793216113 ], [ 72.520896396876694, 23.093899004714416 ], [ 72.520854976668673, 23.096155215498001 ], [ 72.523293879984692, 23.096193516651677 ], [ 72.525732788503859, 23.096231780190216 ], [ 72.525691444390674, 23.098487998585618 ], [ 72.528130398760027, 23.098526228665861 ], [ 72.530569358322708, 23.098564421126227 ], [ 72.533008323073616, 23.098602575966389 ], [ 72.532967095734875, 23.10085880610686 ], [ 72.535406106327301, 23.100896927471531 ], [ 72.537845122098119, 23.10093501121127 ], [ 72.540284143042228, 23.100973057325749 ], [ 72.542723169154513, 23.101011065814642 ], [ 72.545162200429871, 23.101049036677633 ], [ 72.545203224472772, 23.09879278585289 ], [ 72.547642220245777, 23.098830714965064 ], [ 72.547683198475866, 23.096574459302371 ], [ 72.550122158745751, 23.096612346671723 ], [ 72.552561124162636, 23.09665019642237 ], [ 72.552602015939257, 23.094393931810007 ], [ 72.552642902574405, 23.092137666484657 ], [ 72.552683784068421, 23.089881400446387 ], [ 72.552724660421703, 23.087625133695255 ], [ 72.552765531634634, 23.085368866231324 ], [ 72.555204298988187, 23.085406657804011 ], [ 72.55524512443543, 23.083150385515946 ], [ 72.555285944748164, 23.08089411251532 ], [ 72.555326759926814, 23.078637838802202 ], [ 72.555367569971736, 23.076381564376643 ], [ 72.555408374883314, 23.074125289238708 ], [ 72.555449174661945, 23.07186901338844 ], [ 72.555489969307985, 23.069612736825917 ], [ 72.555530758821831, 23.067356459551192 ], [ 72.555571543203854, 23.065100181564315 ], [ 72.553133141298105, 23.06506242698935 ], [ 72.553173961128493, 23.062806152400576 ], [ 72.550735604938694, 23.062768364378108 ], [ 72.548297253890169, 23.062730538798263 ], [ 72.545858907987991, 23.062692675661356 ], [ 72.543420567237277, 23.062654774967715 ], [ 72.540982231643113, 23.06261683671767 ], [ 72.538543901210616, 23.062578860911529 ], [ 72.536105575944887, 23.062540847549624 ], [ 72.53614667465132, 23.060284601133546 ], [ 72.533708395129082, 23.06024655435894 ], [ 72.531270120783432, 23.060208470033306 ], [ 72.528831851619458, 23.060170348156962 ], [ 72.528790631199257, 23.062426582132517 ], [ 72.526352326651576, 23.062388418550771 ], [ 72.526311060468643, 23.064644647657676 ], [ 72.523872720538023, 23.064606442362539 ], [ 72.523831408582126, 23.066862666596396 ], [ 72.521393033269348, 23.066824419579891 ], [ 72.521351675530283, 23.069080638936263 ], [ 72.518913264836115, 23.069042350190411 ], [ 72.518871861303722, 23.07129856466489 ] ] ] } },
{ "type": "Feature", "properties": { "ward_id": "Ahmedabad_WARD_19_0", "ward_name": "South-East Ward 20", "city": "Ahmedabad", "lst_excess": 2.4131581289081288, "sevi": 23.621930816097482, "built_fraction": 0.49980824314574313, "green_ratio": 0.24986660052910051, "ghsl_height": 20.608772246272245, "albedo": 0.23769749278499278, "qf": 7.1067803631553632 }, "geometry": { "type": "Polygon", "coordinates": [ [ [ 72.60777582909563, 23.009475035930485 ], [ 72.605338333664207, 23.009438170796571 ], [ 72.605298486682742, 23.011694547850791 ], [ 72.605258634680808, 23.013950924196944 ], [ 72.605218777658052, 23.016207299834964 ], [ 72.60765639450085, 23.016244177032998 ], [ 72.607616572937545, 23.018500555984463 ], [ 72.61005423527746, 23.018537399721183 ], [ 72.610014449183794, 23.020793781982206 ], [ 72.612452157021579, 23.020830592249247 ], [ 72.612412406407742, 23.023086977815957 ], [ 72.614850159744122, 23.023123754604978 ], [ 72.614810444620318, 23.025380143473466 ], [ 72.617248243456061, 23.025416886776117 ], [ 72.617208563832463, 23.027673278942512 ], [ 72.619646408168293, 23.027709988750431 ], [ 72.622084257496596, 23.027746661057499 ], [ 72.622044653891749, 23.030003060515682 ], [ 72.624482548716159, 23.030039699315257 ], [ 72.624442980637397, 23.032296102059618 ], [ 72.626880920958655, 23.032332707343365 ], [ 72.629318866257833, 23.032369275117148 ], [ 72.629358353307865, 23.030112864397434 ], [ 72.631796263064956, 23.030149390679405 ], [ 72.634234177789409, 23.030185879454887 ], [ 72.636672097476122, 23.030222330723561 ], [ 72.6367114580231, 23.027965907364607 ], [ 72.63914934215606, 23.028002317157011 ], [ 72.64158723124072, 23.028038689446085 ], [ 72.641626505818863, 23.025782257446338 ], [ 72.641665775450761, 23.023525824740101 ], [ 72.641705040136785, 23.021269391327436 ], [ 72.641744299877317, 23.0190129572084 ], [ 72.644182031912891, 23.019049276151154 ], [ 72.644221246222088, 23.016792837365458 ], [ 72.644260455591606, 23.014536397873623 ], [ 72.644299660021815, 23.01227995767572 ], [ 72.644338859513056, 23.010023516771795 ], [ 72.64437805406574, 23.007767075161922 ], [ 72.644417243680195, 23.00551063284615 ], [ 72.646854737812944, 23.005546890565618 ], [ 72.646893882033567, 23.003290443588501 ], [ 72.6469330213218, 23.001033995905733 ], [ 72.646972155678, 22.99877754751736 ], [ 72.647011285102536, 22.996521098423447 ], [ 72.644573952763153, 22.99648485652521 ], [ 72.644613117692018, 22.994228410680805 ], [ 72.642175830724284, 22.994192135294892 ], [ 72.63973854869765, 22.99415582246662 ], [ 72.637301271617218, 22.994119472196285 ], [ 72.637261985383716, 22.996375906151211 ], [ 72.634824672820457, 22.996339514467806 ], [ 72.63238736521393, 22.99630308533888 ], [ 72.629950062569264, 22.996266618764746 ], [ 72.629910650067472, 22.998523040087058 ], [ 72.627473311951604, 22.998486532084307 ], [ 72.625035978808143, 22.998449986632885 ], [ 72.622598650642175, 22.998413403733093 ], [ 72.620161327458774, 22.99837678338524 ], [ 72.620121748218963, 23.00063318804127 ], [ 72.617684389581498, 23.000596526245499 ], [ 72.615247035937159, 23.000559826998209 ], [ 72.612809687291048, 23.000523090299719 ], [ 72.612769981723773, 23.002779482235571 ], [ 72.610332597635249, 23.002742704073622 ], [ 72.607895218555484, 23.002705888457012 ], [ 72.607855427083251, 23.004962271655955 ], [ 72.607815630596747, 23.007218654147135 ], [ 72.60777582909563, 23.009475035930485 ] ] ] } },
{ "type": "Feature", "properties": { "ward_id": "Ahmedabad_WARD_20_0", "ward_name": "South-West Ward 21", "city": "Ahmedabad", "lst_excess": 5.1618018493560944, "sevi": 36.768303384246778, "built_fraction": 0.61799484501347712, "green_ratio": 0.21076393381251873, "ghsl_height": 23.617895327942499, "albedo": 0.2260704964061096, "qf": 9.9622845163222529 }, "geometry": { "type": "Polygon", "coordinates": [ [ [ 72.479433512088931, 22.96234616621399 ], [ 72.476997097573332, 22.962307400530335 ], [ 72.476955212193218, 22.964563572904737 ], [ 72.476913321530603, 22.966819744565193 ], [ 72.476871425585102, 22.969075915511635 ], [ 72.474434895307297, 22.969037099742863 ], [ 72.474392953720226, 22.971293265735806 ], [ 72.47682952435629, 22.97133208574401 ], [ 72.476787617843826, 22.973588255262264 ], [ 72.479224234127329, 22.973627042122011 ], [ 72.479182362699603, 22.975883215161694 ], [ 72.481619024631314, 22.975921968864629 ], [ 72.484055691837312, 22.97596068517478 ], [ 72.484013895879244, 22.978216865959652 ], [ 72.486450608729527, 22.978255549100226 ], [ 72.486408847882032, 22.980511733394863 ], [ 72.488845606377382, 22.980550383357503 ], [ 72.488803880650636, 22.982806571158026 ], [ 72.491240684791862, 22.98284518793438 ], [ 72.491198994196026, 22.985101379236927 ], [ 72.493635843983867, 22.985139962818639 ], [ 72.496072699022122, 22.985178508989609 ], [ 72.496031083964382, 22.987434707998062 ], [ 72.498467984645345, 22.987473220961633 ], [ 72.498426404744336, 22.989729423460421 ], [ 72.500863351068787, 22.989767903208229 ], [ 72.500821806334685, 22.992024109193494 ], [ 72.503258798303406, 22.99206255571718 ], [ 72.505695795503343, 22.992100964816583 ], [ 72.508132797929434, 22.992139336491366 ], [ 72.508174221437386, 22.989883117931054 ], [ 72.510611188675057, 22.989921447997379 ], [ 72.513048161128282, 22.989959740642522 ], [ 72.513089498606391, 22.987703513006689 ], [ 72.515526435864956, 22.987741764055095 ], [ 72.515567727732872, 22.985485531531662 ], [ 72.515609014396148, 22.983229298295917 ], [ 72.513172157932658, 22.983191055597548 ], [ 72.513213479781598, 22.98093482582436 ], [ 72.513254796421592, 22.978678595338838 ], [ 72.513296107853009, 22.976422364141047 ], [ 72.515732843162027, 22.97646059431537 ], [ 72.515774109010607, 22.974204358230953 ], [ 72.51581536965648, 22.971948121434512 ], [ 72.518252029423635, 22.971986305870953 ], [ 72.518293244502303, 22.969730064192479 ], [ 72.518334454384132, 22.967473821802241 ], [ 72.52077103862311, 22.967511960517342 ], [ 72.52081220295338, 22.965255713249672 ], [ 72.520853362092637, 22.962999465270482 ], [ 72.520894516041281, 22.960743216579839 ], [ 72.523330984420511, 22.960781305428771 ], [ 72.523372092838699, 22.958525051865482 ], [ 72.523413196072113, 22.956268797590983 ], [ 72.520976808368232, 22.95623071706439 ], [ 72.518540425853814, 22.956192599176532 ], [ 72.516104048533947, 22.956154443927733 ], [ 72.513667676413732, 22.956116251318313 ], [ 72.511231309498228, 22.95607802134861 ], [ 72.508794947792524, 22.956039754018928 ], [ 72.506358591301705, 22.956001449329605 ], [ 72.503922240030832, 22.955963107280958 ], [ 72.50148589398502, 22.955924727873324 ], [ 72.499049553169343, 22.955886311107012 ], [ 72.496613217588873, 22.955847856982363 ], [ 72.494176887248699, 22.9558093654997 ], [ 72.491740562153879, 22.95577083665934 ], [ 72.489304242309544, 22.95573227046162 ], [ 72.486867927720738, 22.955693666906864 ], [ 72.484431618392549, 22.955655025995394 ], [ 72.481995314330049, 22.955616347727549 ], [ 72.481953525451857, 22.957872530708443 ], [ 72.484389869843298, 22.957911213202671 ], [ 72.484348116027945, 22.960167399696584 ], [ 72.481911731302475, 22.960128712975841 ], [ 72.479475351848578, 22.960089988890889 ], [ 72.479433512088931, 22.96234616621399 ] ] ] } },
{ "type": "Feature", "properties": { "ward_id": "Ahmedabad_WARD_21_0", "ward_name": "North-East Ward 22", "city": "Ahmedabad", "lst_excess": 6.0662997626133786, "sevi": 40.838355831916097, "built_fraction": 0.65356170280612247, "green_ratio": 0.20436686862244896, "ghsl_height": 24.288283907312923, "albedo": 0.22245494791666667, "qf": 10.819070914824264 }, "geometry": { "type": "Polygon", "coordinates": [ [ [ 72.579228252760458, 23.106089292117908 ], [ 72.576789068392472, 23.106051839908073 ], [ 72.576748557687665, 23.108308141897847 ], [ 72.576708041890143, 23.110564443175623 ], [ 72.57666752099955, 23.112820743741338 ], [ 72.576626995015502, 23.115077043594937 ], [ 72.576586463937588, 23.117333342736362 ], [ 72.576545927765466, 23.11958964116555 ], [ 72.578985356293657, 23.119627117808307 ], [ 72.5789448557382, 23.121883419597822 ], [ 72.581384330067507, 23.121920862645673 ], [ 72.581343865138919, 23.124177167791625 ], [ 72.581303395125204, 23.126433472225436 ], [ 72.581262920025978, 23.128689775947045 ], [ 72.581222439840872, 23.130946078956388 ], [ 72.583662082154106, 23.130983500595448 ], [ 72.586101729548474, 23.131020884549987 ], [ 72.588541382018917, 23.131058230819686 ], [ 72.590981039560262, 23.131095539404228 ], [ 72.593420702167435, 23.131132810303292 ], [ 72.595860369835293, 23.131170043516562 ], [ 72.595820128995015, 23.133426370142775 ], [ 72.598259842458319, 23.133463569710486 ], [ 72.598300042558762, 23.131207239043725 ], [ 72.600739720332697, 23.131244396884469 ], [ 72.603179403151984, 23.131281517038474 ], [ 72.605619091011533, 23.131318599505416 ], [ 72.608058783906202, 23.131355644284991 ], [ 72.608098816013523, 23.129099296786102 ], [ 72.610538473201629, 23.129136299858036 ], [ 72.610578459547824, 23.12687994762851 ], [ 72.613018081028599, 23.126916909000805 ], [ 72.613058021623885, 23.12466055204505 ], [ 72.615497607396591, 23.124697471725703 ], [ 72.6155375022512, 23.122441110048129 ], [ 72.613097957200509, 23.122404194378856 ], [ 72.613137887758825, 23.120147836002268 ], [ 72.613177813299217, 23.117891476915361 ], [ 72.613217733822069, 23.115635117118185 ], [ 72.615657156737413, 23.115672020754101 ], [ 72.618096584664812, 23.115708886730026 ], [ 72.618136418767008, 23.113452518205005 ], [ 72.618176247862593, 23.111196148970098 ], [ 72.618216071951963, 23.108939779025352 ], [ 72.615776766115019, 23.108902925069344 ], [ 72.615816625885159, 23.1066465584212 ], [ 72.615856480644709, 23.104390191063207 ], [ 72.613417261186058, 23.104353307480288 ], [ 72.613457151611428, 23.102096943422723 ], [ 72.611017977843716, 23.102060026214897 ], [ 72.61105790392466, 23.099803665461618 ], [ 72.611097824985933, 23.097547303998414 ], [ 72.611137741027918, 23.095290941825333 ], [ 72.60869869427539, 23.095253999037084 ], [ 72.606259652546896, 23.095217018626592 ], [ 72.603820615847567, 23.095180000594187 ], [ 72.601381584182477, 23.095142944940175 ], [ 72.601421657822598, 23.092886598153289 ], [ 72.598982671850194, 23.092849508912213 ], [ 72.596543690921919, 23.092812382054252 ], [ 72.594104715042818, 23.092775217579721 ], [ 72.591665744218034, 23.092738015488941 ], [ 72.591625507966839, 23.094994346114376 ], [ 72.589186501549634, 23.094957102357064 ], [ 72.589146219581693, 23.097213428220904 ], [ 72.586707177572833, 23.097176142789081 ], [ 72.586666849877957, 23.099432463886931 ], [ 72.584227772278197, 23.099395136772593 ], [ 72.584187398846154, 23.101651453100047 ], [ 72.581748285656218, 23.101614084295203 ], [ 72.581707866476805, 23.103870395847835 ], [ 72.57926871769746, 23.103832985344493 ], [ 72.579228252760458, 23.106089292117908 ] ] ] } },
{ "type": "Feature", "properties": { "ward_id": "Ahmedabad_WARD_22_0", "ward_name": "North-East Ward 23", "city": "Ahmedabad", "lst_excess": 5.7929625686813182, "sevi": 39.047359203296701, "built_fraction": 0.63223945360195366, "green_ratio": 0.22143732638888888, "ghsl_height": 23.818148466117215, "albedo": 0.22376921359890109, "qf": 10.414327361874237 }, "geometry": { "type": "Polygon", "coordinates": [ [ [ 72.55524512443543, 23.083150385515946 ], [ 72.555204298988187, 23.085406657804011 ], [ 72.552765531634634, 23.085368866231324 ], [ 72.552724660421703, 23.087625133695255 ], [ 72.552683784068421, 23.089881400446387 ], [ 72.552642902574405, 23.092137666484657 ], [ 72.552602015939257, 23.094393931810007 ], [ 72.552561124162636, 23.09665019642237 ], [ 72.555000094721393, 23.096688008554004 ], [ 72.554959238459233, 23.098944276565522 ], [ 72.557398254811503, 23.098982055185925 ], [ 72.559837276295838, 23.099019796182571 ], [ 72.559796496220599, 23.101276071693508 ], [ 72.562235563494482, 23.101313779166144 ], [ 72.564674635890569, 23.101351449010298 ], [ 72.564633932023838, 23.103607732004765 ], [ 72.567073050205522, 23.103645368312133 ], [ 72.569512173499589, 23.103682966986291 ], [ 72.56947154586291, 23.105939257448401 ], [ 72.571910714938596, 23.105976822573002 ], [ 72.574349889116817, 23.106014350059663 ], [ 72.57430933773179, 23.108270647973526 ], [ 72.576748557687665, 23.108308141897847 ], [ 72.576789068392472, 23.106051839908073 ], [ 72.579228252760458, 23.106089292117908 ], [ 72.57926871769746, 23.103832985344493 ], [ 72.581707866476805, 23.103870395847835 ], [ 72.581748285656218, 23.101614084295203 ], [ 72.584187398846154, 23.101651453100047 ], [ 72.584227772278197, 23.099395136772593 ], [ 72.586666849877957, 23.099432463886931 ], [ 72.586707177572833, 23.097176142789081 ], [ 72.589146219581693, 23.097213428220904 ], [ 72.589186501549634, 23.094957102357064 ], [ 72.591625507966839, 23.094994346114376 ], [ 72.591665744218034, 23.092738015488941 ], [ 72.591705975409809, 23.090481684152707 ], [ 72.591746201542563, 23.088225352105713 ], [ 72.591786422616636, 23.085969019348038 ], [ 72.589347578776128, 23.085931791792294 ], [ 72.589387835423324, 23.083675462374043 ], [ 72.589428087007519, 23.081419132245088 ], [ 72.589468333529055, 23.079162801405477 ], [ 72.587029616629707, 23.079125548408438 ], [ 72.587069898704712, 23.076869220912002 ], [ 72.587110175712709, 23.074612892704895 ], [ 72.587150447654082, 23.072356563787189 ], [ 72.587190714529228, 23.070100234158932 ], [ 72.584752165127981, 23.070062959801717 ], [ 72.582313620797706, 23.070025647870402 ], [ 72.57987508154352, 23.069988298365292 ], [ 72.577436547370482, 23.069950911286714 ], [ 72.574998018283736, 23.069913486634995 ], [ 72.57255949428837, 23.069876024410434 ], [ 72.570120975389472, 23.069838524613356 ], [ 72.56768246159217, 23.069800987244083 ], [ 72.56524395290154, 23.069763412302926 ], [ 72.56280544932271, 23.06972579979022 ], [ 72.560366950860782, 23.069688149706263 ], [ 72.557928457520831, 23.069650462051392 ], [ 72.555489969307985, 23.069612736825917 ], [ 72.555449174661945, 23.07186901338844 ], [ 72.555408374883314, 23.074125289238708 ], [ 72.555367569971736, 23.076381564376643 ], [ 72.555326759926814, 23.078637838802202 ], [ 72.555285944748164, 23.08089411251532 ], [ 72.55524512443543, 23.083150385515946 ] ] ] } },
{ "type": "Feature", "properties": { "ward_id": "Ahmedabad_WARD_23_0", "ward_name": "South-East Ward 24", "city": "Ahmedabad", "lst_excess": 3.2797103941415537, "sevi": 27.927149566751016, "built_fraction": 0.5406577639751553, "green_ratio": 0.23618814508089872, "ghsl_height": 21.473030634153822, "albedo": 0.23329995207422743, "qf": 7.9860237903535003 }, "geometry": { "type": "Polygon", "coordinates": [ [ [ 72.5666224107689, 22.993049028459868 ], [ 72.566581952095419, 22.995305345588235 ], [ 72.569019123945054, 22.99534278562831 ], [ 72.568978700601107, 22.997599106132729 ], [ 72.568938272162555, 22.999855425927464 ], [ 72.568897838629056, 23.002111745012453 ], [ 72.571335136875788, 23.00214915986102 ], [ 72.571294738691392, 23.004405482318322 ], [ 72.571254335416398, 23.006661804065907 ], [ 72.573691719648167, 23.006699189621038 ], [ 72.573651351737198, 23.008955514737128 ], [ 72.573610978739936, 23.011211839143506 ], [ 72.576048448973538, 23.011249195389073 ], [ 72.576008111355193, 23.013505523160156 ], [ 72.57596776865492, 23.015761850221541 ], [ 72.575927420872318, 23.018018176573165 ], [ 72.578365017600674, 23.018055507563687 ], [ 72.578405324907123, 23.01579917714141 ], [ 72.580842886236567, 23.015836466586201 ], [ 72.580883147994328, 23.013580131387869 ], [ 72.583320673924092, 23.01361737929491 ], [ 72.585758204920523, 23.013654589730319 ], [ 72.585718024106768, 23.01591093304927 ], [ 72.588155600637322, 23.015948110066905 ], [ 72.590593182224765, 23.015985249608196 ], [ 72.593030768863954, 23.01602235167282 ], [ 72.592990704422348, 23.018278706433218 ], [ 72.595428336586991, 23.018315775062916 ], [ 72.595388307582226, 23.020572133156612 ], [ 72.597825985273076, 23.020609168343036 ], [ 72.597865973793589, 23.01835280621124 ], [ 72.600303616037039, 23.018389799877877 ], [ 72.60034355904115, 23.01613343300356 ], [ 72.602781165836461, 23.016170385158375 ], [ 72.605218777658052, 23.016207299834964 ], [ 72.605258634680808, 23.013950924196944 ], [ 72.605298486682742, 23.011694547850791 ], [ 72.605338333664207, 23.009438170796571 ], [ 72.60777582909563, 23.009475035930485 ], [ 72.607815630596747, 23.007218654147135 ], [ 72.607855427083251, 23.004962271655955 ], [ 72.607895218555484, 23.002705888457012 ], [ 72.607935005013886, 23.000449504550357 ], [ 72.607974786458755, 22.998193119936044 ], [ 72.605537493277765, 22.998156274906396 ], [ 72.605577310144341, 22.99589989360495 ], [ 72.605617121993035, 22.993643511595849 ], [ 72.603179914694081, 22.993606637169297 ], [ 72.603219761949561, 22.991350258476867 ], [ 72.603259604182838, 22.989093879076762 ], [ 72.600822482749138, 22.989056975269438 ], [ 72.600862360374293, 22.986800599189817 ], [ 72.600902232972913, 22.984544222402508 ], [ 72.598465197387711, 22.984507289230539 ], [ 72.596028166833761, 22.984470318638127 ], [ 72.593591141316182, 22.984433310625601 ], [ 72.591154120840031, 22.984396265193272 ], [ 72.588717105410424, 22.98435918234145 ], [ 72.586280095032436, 22.984322062070454 ], [ 72.583843089711124, 22.984284904380594 ], [ 72.581406089451633, 22.984247709272193 ], [ 72.578969094259023, 22.984210476745556 ], [ 72.57653210413838, 22.984173206801007 ], [ 72.574095119094807, 22.984135899438861 ], [ 72.57165813913339, 22.984098554659436 ], [ 72.569221164259204, 22.984061172463043 ], [ 72.566784194477336, 22.984023752850007 ], [ 72.566743756197297, 22.986280072816811 ], [ 72.564306751109839, 22.986242611698216 ], [ 72.564266267323916, 22.988498926866146 ], [ 72.564225778434732, 22.990755241324361 ], [ 72.566662864343442, 22.990792710621804 ], [ 72.5666224107689, 22.993049028459868 ] ] ] } },
{ "type": "Feature", "properties": { "ward_id": "Ahmedabad_WARD_24_0", "ward_name": "North-East Ward 25", "city": "Ahmedabad", "lst_excess": 2.9387598194039524, "sevi": 26.582081106252023, "built_fraction": 0.53250129575639782, "green_ratio": 0.23919374595076126, "ghsl_height": 21.338011216391319, "albedo": 0.23679065435698091, "qf": 7.8045567095885975 }, "geometry": { "type": "Polygon", "coordinates": [ [ [ 72.621846561043867, 23.041285047190989 ], [ 72.621806927506967, 23.043541442402525 ], [ 72.621767288980081, 23.04579783690609 ], [ 72.621727645462869, 23.048054230701624 ], [ 72.619289431375876, 23.048017522410024 ], [ 72.619249742313698, 23.050273911498536 ], [ 72.61921004825534, 23.052530299878764 ], [ 72.619170349200445, 23.054786687550667 ], [ 72.619130645148616, 23.057043074514166 ], [ 72.619090936099497, 23.059299460769214 ], [ 72.621529353008683, 23.059336189056733 ], [ 72.621489679541639, 23.061592578602848 ], [ 72.623928142023516, 23.061629273327465 ], [ 72.623888504148766, 23.063885666160758 ], [ 72.626327012204058, 23.063922327314128 ], [ 72.626287409931777, 23.066178723430703 ], [ 72.628725963561237, 23.066215351004459 ], [ 72.631164522169058, 23.066251941006648 ], [ 72.633603085750138, 23.066288493436936 ], [ 72.633642566248128, 23.064032085369924 ], [ 72.63608109420521, 23.064068596252717 ], [ 72.638519627124978, 23.064105069567098 ], [ 72.640958165002331, 23.06414150531274 ], [ 72.643396707832153, 23.064177903489348 ], [ 72.64583525560937, 23.064214264096609 ], [ 72.645874528200551, 23.061957835486762 ], [ 72.648313040331132, 23.061994154569632 ], [ 72.650751557398522, 23.062030436086623 ], [ 72.653190079397604, 23.062066680037432 ], [ 72.655628606323305, 23.062102886421748 ], [ 72.655667711635175, 23.059846441310871 ], [ 72.65570681202594, 23.057589995493405 ], [ 72.653268366264953, 23.057553796993638 ], [ 72.653307502309644, 23.055297354411728 ], [ 72.653346633428825, 23.053040911123226 ], [ 72.653385759622864, 23.050784467128178 ], [ 72.653424880892146, 23.048528022426655 ], [ 72.653463997237026, 23.046271577018697 ], [ 72.653503108657844, 23.044015130904373 ], [ 72.653542215154999, 23.041758684083746 ], [ 72.653581316728847, 23.039502236556867 ], [ 72.651143200345501, 23.039466032064585 ], [ 72.651182337529917, 23.037209587776658 ], [ 72.651221469786663, 23.03495314278247 ], [ 72.651260597116092, 23.03269669708207 ], [ 72.651299719518576, 23.030440250675522 ], [ 72.648861770165297, 23.030404024454132 ], [ 72.648900928153964, 23.028147581290227 ], [ 72.646463024244767, 23.028111321513002 ], [ 72.64402512527198, 23.028075024231519 ], [ 72.64158723124072, 23.028038689446085 ], [ 72.63914934215606, 23.028002317157011 ], [ 72.6367114580231, 23.027965907364607 ], [ 72.636672097476122, 23.030222330723561 ], [ 72.634234177789409, 23.030185879454887 ], [ 72.631796263064956, 23.030149390679405 ], [ 72.629358353307865, 23.030112864397434 ], [ 72.629318866257833, 23.032369275117148 ], [ 72.626880920958655, 23.032332707343365 ], [ 72.624442980637397, 23.032296102059618 ], [ 72.624403407575599, 23.034552504096421 ], [ 72.624363829530395, 23.036808905425609 ], [ 72.62432424650143, 23.039065306047121 ], [ 72.621886189591166, 23.039028651271536 ], [ 72.621846561043867, 23.041285047190989 ] ] ] } }
]
}
